{"type":"FeatureCollection","features":[{"type":"Feature","properties":{"OGF_ID":69501241},"geometry":{"type":"Polygon","coordinates":[[[-78.87037,44.74309],[-78.86941,44.74407],[-78.8699,44.74511],[-78.87533,44.74203],[-78.87553,44.74018],[-78.87419,44.73988],[-78.87553,44.73848],[-78.87444,44.73436],[-78.87738,44.73008],[-78.87808,44.73068],[-78.87968,44.7302],[-78.87925,44.72918],[-78.87969,44.72964],[-78.88142,44.72907],[-78.88267,44.73069],[-78.88481,44.73161],[-78.88632,44.73434],[-78.88946,44.73193],[-78.88859,44.73116],[-78.89032,44.72981],[-78.8905,44.72555],[-78.89265,44.72439],[-78.89456,44.72162],[-78.89551,44.72205],[-78.8964,44.71995],[-78.89569,44.71954],[-78.89789,44.71928],[-78.89749,44.7184],[-78.89571,44.71832],[-78.89591,44.71728],[-78.90028,44.71208],[-78.90211,44.71261],[-78.90262,44.71032],[-78.90548,44.70983],[-78.90618,44.70778],[-78.90827,44.7078],[-78.90912,44.70689],[-78.9117,44.70773],[-78.91351,44.71041],[-78.91483,44.71015],[-78.91656,44.70453],[-78.91811,44.70283],[-78.91747,44.70071],[-78.92225,44.69661],[-78.92272,44.69343],[-78.92481,44.69122],[-78.92675,44.69049],[-78.92764,44.68927],[-78.92682,44.6882],[-78.92799,44.68695],[-78.93762,44.67982],[-78.93674,44.6782],[-78.93848,44.67426],[-78.94283,44.67252],[-78.94506,44.67056],[-78.94557,44.66848],[-78.94803,44.66697],[-78.94727,44.6665],[-78.94913,44.66462],[-78.94833,44.66287],[-78.94923,44.66168],[-78.94787,44.65997],[-78.94779,44.65816],[-78.94883,44.65495],[-78.95293,44.65705],[-78.95305,44.65831],[-78.95528,44.6598],[-78.95437,44.66375],[-78.95637,44.66474],[-78.95621,44.66665],[-78.95781,44.66874],[-78.95992,44.67014],[-78.96128,44.67011],[-78.9622,44.67258],[-78.96482,44.67244],[-78.96726,44.675],[-78.97378,44.67769],[-78.97394,44.67945],[-78.97655,44.67972],[-78.97862,44.68279],[-78.97991,44.68244],[-78.9819,44.68664],[-78.98015,44.68721],[-78.98088,44.68803],[-78.98398,44.68862],[-78.98712,44.6904],[-78.9879,44.68994],[-78.99233,44.69094],[-78.99783,44.6878],[-78.99904,44.68472],[-79.00216,44.68747],[-79.00379,44.68652],[-79.00487,44.68752],[-79.01698,44.68888],[-79.01797,44.68965],[-79.01721,44.6926],[-79.01789,44.69385],[-79.01679,44.694],[-79.0166,44.69581],[-79.01531,44.69635],[-79.0149,44.69778],[-79.01362,44.6978],[-79.01275,44.69939],[-79.01445,44.70004],[-79.01483,44.70255],[-79.01654,44.70242],[-79.01725,44.70118],[-79.02007,44.70009],[-79.02067,44.69835],[-79.02371,44.69922],[-79.02622,44.69625],[-79.02915,44.69581],[-79.0311,44.69446],[-79.03185,44.69168],[-79.0296,44.69126],[-79.02893,44.6897],[-79.0326,44.68786],[-79.03353,44.68395],[-79.03796,44.68091],[-79.03557,44.67985],[-79.03474,44.67816],[-79.03336,44.67802],[-79.033,44.67706],[-79.03485,44.67503],[-79.03309,44.67444],[-79.0332,44.67118],[-79.03553,44.67001],[-79.03659,44.66831],[-79.03581,44.66649],[-79.03653,44.66442],[-79.04217,44.66064],[-79.04388,44.6561],[-79.04249,44.65536],[-79.04305,44.65208],[-79.04484,44.65169],[-79.046,44.65025],[-79.0459,44.64857],[-79.04302,44.64788],[-79.04316,44.64699],[-79.04532,44.6446],[-79.04887,44.64268],[-79.04952,44.64032],[-79.05106,44.64065],[-79.05228,44.63939],[-79.05223,44.63792],[-79.05418,44.63551],[-79.0528,44.6344],[-79.05365,44.63346],[-79.05494,44.6332],[-79.05636,44.63154],[-79.06218,44.63133],[-79.06243,44.62873],[-79.06397,44.62831],[-79.06184,44.62749],[-79.06214,44.62656],[-79.06349,44.62625],[-79.06277,44.6248],[-79.06746,44.62041],[-79.06999,44.6199],[-79.06857,44.61893],[-79.069,44.61795],[-79.06727,44.61615],[-79.06816,44.61396],[-79.07256,44.61012],[-79.07507,44.60964],[-79.0762,44.60812],[-79.07047,44.60701],[-79.07118,44.60508],[-79.06967,44.60463],[-79.06947,44.60289],[-79.07112,44.60191],[-79.06948,44.59976],[-79.06333,44.59743],[-79.05757,44.59868],[-79.05795,44.59789],[-79.05573,44.59714],[-79.05949,44.59468],[-79.05876,44.59201],[-79.06093,44.59146],[-79.06086,44.5894],[-79.06255,44.58851],[-79.06459,44.59009],[-79.06587,44.59009],[-79.06696,44.58896],[-79.0689,44.58868],[-79.06917,44.58796],[-79.06814,44.58738],[-79.0711,44.5845],[-79.07297,44.58074],[-79.07467,44.58015],[-79.07313,44.57651],[-79.076,44.57572],[-79.08172,44.57152],[-79.08564,44.57072],[-79.09024,44.57078],[-79.09113,44.5699],[-79.08953,44.56574],[-79.08689,44.56608],[-79.08257,44.56295],[-79.08252,44.56119],[-79.08113,44.56055],[-79.08179,44.55815],[-79.08441,44.5589],[-79.08577,44.55823],[-79.08279,44.55204],[-79.08428,44.54986],[-79.0864,44.55086],[-79.08731,44.54996],[-79.09086,44.55018],[-79.09145,44.54922],[-79.09286,44.54976],[-79.09469,44.54891],[-79.09467,44.55114],[-79.09599,44.55126],[-79.09623,44.55259],[-79.10048,44.55517],[-79.10246,44.55735],[-79.10438,44.557],[-79.11045,44.55917],[-79.11235,44.55888],[-79.11411,44.55998],[-79.11539,44.55865],[-79.11743,44.55844],[-79.12275,44.55529],[-79.12402,44.55063],[-79.12565,44.5492],[-79.12909,44.54978],[-79.13178,44.5487],[-79.13271,44.55022],[-79.13476,44.55072],[-79.13712,44.55024],[-79.13894,44.55104],[-79.14081,44.55073],[-79.14175,44.54887],[-79.14522,44.54744],[-79.15172,44.54673],[-79.15517,44.54918],[-79.15726,44.55234],[-79.15937,44.55333],[-79.16072,44.55277],[-79.16272,44.55351],[-79.16262,44.55579],[-79.16481,44.55984],[-79.16491,44.5632],[-79.16749,44.56435],[-79.16881,44.56782],[-79.16791,44.56972],[-79.16894,44.57227],[-79.16677,44.57373],[-79.16784,44.57501],[-79.16645,44.57829],[-79.16751,44.58405],[-79.16572,44.58738],[-79.16729,44.58733],[-79.17138,44.59021],[-79.17353,44.59062],[-79.17517,44.59382],[-79.17764,44.5939],[-79.17864,44.59581],[-79.18094,44.59686],[-79.18278,44.60018],[-79.18406,44.60019],[-79.18563,44.60212],[-79.18712,44.60258],[-79.18564,44.60744],[-79.19056,44.61027],[-79.19089,44.61431],[-79.1928,44.6142],[-79.19449,44.61517],[-79.1954,44.61704],[-79.19412,44.61845],[-79.19855,44.62225],[-79.19882,44.62359],[-79.20161,44.62541],[-79.20219,44.62891],[-79.20558,44.63133],[-79.20164,44.63742],[-79.19927,44.63776],[-79.19218,44.64504],[-79.18951,44.64675],[-79.19028,44.64845],[-79.19173,44.64909],[-79.19011,44.65291],[-79.1869,44.65601],[-79.1864,44.66007],[-79.19138,44.66234],[-79.1963,44.66797],[-79.20059,44.66766],[-79.20362,44.66988],[-79.21109,44.67247],[-79.21112,44.67315],[-79.21264,44.6729],[-79.21546,44.67462],[-79.22331,44.67651],[-79.2236,44.67572],[-79.22006,44.67434],[-79.22014,44.67183],[-79.2219,44.67056],[-79.22048,44.66761],[-79.22381,44.66695],[-79.2253,44.66556],[-79.22837,44.6658],[-79.22899,44.66748],[-79.23754,44.66768],[-79.24122,44.66647],[-79.24424,44.66154],[-79.24616,44.66061],[-79.24693,44.65904],[-79.24699,44.6571],[-79.24603,44.65623],[-79.2471,44.65488],[-79.24536,44.65404],[-79.24704,44.65309],[-79.24668,44.65162],[-79.24885,44.65199],[-79.25163,44.6495],[-79.24984,44.64547],[-79.25142,44.64441],[-79.25281,44.64456],[-79.25281,44.64323],[-79.25484,44.64318],[-79.25476,44.64117],[-79.25606,44.64004],[-79.25738,44.64006],[-79.25748,44.63879],[-79.26041,44.6359],[-79.26213,44.63471],[-79.26581,44.63448],[-79.27027,44.62872],[-79.27685,44.62405],[-79.27906,44.62585],[-79.28162,44.62409],[-79.28743,44.62455],[-79.28835,44.62217],[-79.29066,44.62155],[-79.28853,44.6183],[-79.2921,44.61504],[-79.29599,44.6135],[-79.30106,44.60996],[-79.30271,44.61023],[-79.30753,44.60747],[-79.307,44.60685],[-79.30876,44.60555],[-79.30855,44.60403],[-79.3104,44.60455],[-79.31398,44.604],[-79.31717,44.60229],[-79.31884,44.59978],[-79.32451,44.60058],[-79.32591,44.60297],[-79.33311,44.60228],[-79.33402,44.60326],[-79.33608,44.60283],[-79.33836,44.6045],[-79.33729,44.61104],[-79.3297,44.62006],[-79.33023,44.62428],[-79.32391,44.63453],[-79.32354,44.63663],[-79.32563,44.63856],[-79.32852,44.63731],[-79.33151,44.63361],[-79.33377,44.63258],[-79.3334,44.63136],[-79.33479,44.63064],[-79.33405,44.63227],[-79.33459,44.63391],[-79.33671,44.63504],[-79.33853,44.63339],[-79.33874,44.63222],[-79.34115,44.63009],[-79.33978,44.62915],[-79.34095,44.6282],[-79.34029,44.62599],[-79.34248,44.62269],[-79.3421,44.61985],[-79.34401,44.6178],[-79.3438,44.61632],[-79.34717,44.61313],[-79.34902,44.60947],[-79.35129,44.6086],[-79.35122,44.60764],[-79.35511,44.60713],[-79.3583,44.60342],[-79.36347,44.60472],[-79.36767,44.60469],[-79.36928,44.60368],[-79.37054,44.60466],[-79.37977,44.60711],[-79.38857,44.60623],[-79.39634,44.60631],[-79.39781,44.60403],[-79.39939,44.6035],[-79.40184,44.60559],[-79.4083,44.60636],[-79.40908,44.60544],[-79.41102,44.60597],[-79.41168,44.60706],[-79.41619,44.60833],[-79.41833,44.61018],[-79.42154,44.61066],[-79.42485,44.61225],[-79.42589,44.61193],[-79.43056,44.61413],[-79.43222,44.61185],[-79.43493,44.61153],[-79.43524,44.60963],[-79.43904,44.60848],[-79.44094,44.60584],[-79.44331,44.60521],[-79.44595,44.60255],[-79.44746,44.5954],[-79.44917,44.59797],[-79.45278,44.59751],[-79.45513,44.59635],[-79.45682,44.59675],[-79.4616,44.59523],[-79.46558,44.59298],[-79.46967,44.58894],[-79.47717,44.58763],[-79.48469,44.5882],[-79.48823,44.5832],[-79.48867,44.58118],[-79.48754,44.57972],[-79.48823,44.57822],[-79.49077,44.5774],[-79.4903,44.5752],[-79.49198,44.57394],[-79.49696,44.57492],[-79.49736,44.57297],[-79.49911,44.572],[-79.50937,44.57067],[-79.51026,44.56999],[-79.51408,44.57009],[-79.51783,44.56855],[-79.5211,44.56838],[-79.52365,44.56712],[-79.52298,44.56606],[-79.52465,44.56528],[-79.52491,44.56321],[-79.52832,44.56266],[-79.52811,44.56185],[-79.52943,44.56109],[-79.5309,44.56213],[-79.53261,44.56154],[-79.53278,44.56296],[-79.53531,44.56237],[-79.53643,44.56314],[-79.53771,44.56298],[-79.53934,44.56208],[-79.5354,44.56019],[-79.53542,44.55933],[-79.53987,44.55974],[-79.54136,44.55746],[-79.53959,44.55606],[-79.54118,44.55503],[-79.54462,44.55522],[-79.54537,44.55305],[-79.55075,44.55187],[-79.55636,44.55341],[-79.56373,44.55336],[-79.56373,44.55217],[-79.56754,44.55174],[-79.5684,44.55065],[-79.57173,44.54957],[-79.57381,44.54976],[-79.57369,44.54685],[-79.57558,44.54651],[-79.57809,44.54777],[-79.57866,44.54691],[-79.58112,44.5467],[-79.57923,44.54409],[-79.58053,44.5433],[-79.58004,44.54238],[-79.5809,44.54118],[-79.58372,44.54196],[-79.58467,44.54037],[-79.58612,44.54085],[-79.58894,44.53992],[-79.59064,44.54019],[-79.59107,44.53904],[-79.59316,44.53819],[-79.59638,44.53814],[-79.59586,44.53714],[-79.59314,44.53611],[-79.58955,44.53547],[-79.58774,44.53584],[-79.58741,44.53381],[-79.58979,44.53337],[-79.58854,44.53124],[-79.59017,44.53044],[-79.58968,44.52913],[-79.58653,44.52937],[-79.58639,44.5289],[-79.58775,44.52721],[-79.59138,44.52778],[-79.59368,44.52531],[-79.59797,44.52618],[-79.60299,44.52544],[-79.60328,44.52379],[-79.60113,44.52302],[-79.60067,44.52103],[-79.60142,44.5201],[-79.60047,44.51927],[-79.5989,44.5193],[-79.5986,44.51815],[-79.59943,44.51679],[-79.59868,44.51169],[-79.59984,44.50999],[-79.59801,44.50814],[-79.59672,44.50835],[-79.59658,44.50731],[-79.59577,44.50769],[-79.5957,44.50634],[-79.59376,44.50539],[-79.59366,44.50411],[-79.59012,44.49952],[-79.59139,44.4975],[-79.59075,44.49815],[-79.58999,44.49766],[-79.58891,44.49853],[-79.58693,44.49845],[-79.58579,44.49713],[-79.58409,44.4969],[-79.58176,44.49258],[-79.57764,44.49354],[-79.57788,44.48975],[-79.57537,44.48328],[-79.57795,44.4815],[-79.5773,44.47984],[-79.57455,44.47794],[-79.57381,44.47873],[-79.57109,44.47845],[-79.57206,44.47329],[-79.57102,44.46977],[-79.57193,44.46693],[-79.57364,44.46561],[-79.57175,44.46375],[-79.57433,44.46198],[-79.57371,44.45868],[-79.57195,44.45713],[-79.57053,44.4571],[-79.5695,44.45547],[-79.57035,44.45495],[-79.56955,44.45316],[-79.57228,44.45227],[-79.57264,44.44955],[-79.56895,44.44462],[-79.56932,44.44269],[-79.5684,44.44091],[-79.57045,44.43822],[-79.56949,44.43762],[-79.56881,44.43351],[-79.5669,44.43276],[-79.56742,44.43163],[-79.56624,44.42941],[-79.56951,44.42808],[-79.56718,44.42527],[-79.56903,44.42403],[-79.5776,44.42189],[-79.57933,44.42338],[-79.58453,44.4232],[-79.58803,44.42076],[-79.5899,44.42085],[-79.59107,44.41941],[-79.59366,44.41832],[-79.59492,44.4148],[-79.59737,44.41483],[-79.59763,44.41363],[-79.59863,44.41497],[-79.60074,44.41573],[-79.60175,44.41539],[-79.60245,44.41613],[-79.60776,44.41522],[-79.6134,44.41176],[-79.61574,44.41119],[-79.61906,44.40885],[-79.61933,44.40734],[-79.62496,44.40588],[-79.62538,44.40515],[-79.62561,44.40579],[-79.62791,44.40533],[-79.62832,44.40447],[-79.6293,44.40508],[-79.63123,44.4047],[-79.6353,44.40083],[-79.63913,44.40041],[-79.64326,44.39727],[-79.64691,44.3965],[-79.64802,44.39754],[-79.64766,44.39953],[-79.65033,44.40131],[-79.64921,44.40228],[-79.6519,44.40288],[-79.66586,44.40051],[-79.66856,44.39913],[-79.67435,44.39939],[-79.67284,44.40222],[-79.67105,44.40328],[-79.67059,44.4062],[-79.674,44.4071],[-79.67398,44.40941],[-79.67525,44.4104],[-79.67372,44.41062],[-79.67343,44.41193],[-79.67503,44.41268],[-79.67494,44.41336],[-79.68268,44.4113],[-79.68672,44.40902],[-79.68896,44.41149],[-79.69268,44.41158],[-79.69459,44.41053],[-79.6945,44.40889],[-79.70328,44.40722],[-79.70671,44.40846],[-79.70914,44.40748],[-79.70935,44.40848],[-79.71342,44.40989],[-79.71474,44.41304],[-79.71863,44.41047],[-79.71994,44.41136],[-79.72201,44.41069],[-79.72767,44.40662],[-79.73483,44.40431],[-79.73594,44.40346],[-79.73609,44.40162],[-79.73855,44.40125],[-79.74806,44.39538],[-79.74593,44.39371],[-79.74443,44.39376],[-79.74279,44.3917],[-79.74121,44.39224],[-79.73927,44.39062],[-79.7388,44.3894],[-79.74122,44.38821],[-79.74145,44.38404],[-79.7396,44.38389],[-79.73849,44.38297],[-79.73842,44.37884],[-79.73635,44.37713],[-79.73672,44.37589],[-79.73373,44.3701],[-79.73565,44.36509],[-79.73393,44.36151],[-79.72919,44.36273],[-79.72796,44.36453],[-79.72841,44.36527],[-79.72692,44.36637],[-79.72551,44.36595],[-79.72463,44.36398],[-79.71395,44.36714],[-79.7132,44.36539],[-79.70947,44.36474],[-79.71055,44.36375],[-79.70919,44.35909],[-79.71041,44.35757],[-79.71316,44.35694],[-79.71438,44.35567],[-79.70964,44.35074],[-79.70985,44.34945],[-79.70679,44.34807],[-79.70765,44.3466],[-79.70993,44.34605],[-79.71272,44.3424],[-79.70993,44.34248],[-79.71133,44.34085],[-79.7111,44.33986],[-79.70887,44.33917],[-79.7097,44.33731],[-79.70799,44.33689],[-79.70051,44.33838],[-79.69922,44.33528],[-79.69551,44.33433],[-79.69675,44.33211],[-79.69299,44.33213],[-79.69266,44.33032],[-79.6906,44.32916],[-79.69088,44.32815],[-79.69239,44.3283],[-79.6963,44.32578],[-79.69734,44.32582],[-79.69608,44.3204],[-79.70332,44.31879],[-79.70154,44.31863],[-79.70236,44.318],[-79.70144,44.31605],[-79.7032,44.3155],[-79.70337,44.31446],[-79.70542,44.31545],[-79.70771,44.31396],[-79.70519,44.3108],[-79.70256,44.31004],[-79.69777,44.31011],[-79.69569,44.31082],[-79.69595,44.30698],[-79.69389,44.30511],[-79.69212,44.3055],[-79.69099,44.3011],[-79.68918,44.30149],[-79.68688,44.29937],[-79.68389,44.30053],[-79.67819,44.2779],[-79.68354,44.2748],[-79.68867,44.27328],[-79.68798,44.27068],[-79.68355,44.27157],[-79.68354,44.27047],[-79.68154,44.27086],[-79.68008,44.26982],[-79.68012,44.26851],[-79.6787,44.2679],[-79.67523,44.26813],[-79.67471,44.26633],[-79.67377,44.26689],[-79.67357,44.2694],[-79.66977,44.27105],[-79.66816,44.27019],[-79.66791,44.26779],[-79.66877,44.26648],[-79.66548,44.26374],[-79.66478,44.26065],[-79.66332,44.25961],[-79.66021,44.26149],[-79.66161,44.26358],[-79.6519,44.26578],[-79.64521,44.26943],[-79.64439,44.27081],[-79.64487,44.27414],[-79.64205,44.27706],[-79.63896,44.27812],[-79.63601,44.27636],[-79.63351,44.27628],[-79.63318,44.27734],[-79.63105,44.27693],[-79.62982,44.27926],[-79.62787,44.27871],[-79.62753,44.28134],[-79.62614,44.28193],[-79.61899,44.28109],[-79.61454,44.28196],[-79.61283,44.28129],[-79.61007,44.28177],[-79.61086,44.27882],[-79.60934,44.27821],[-79.60705,44.27365],[-79.60744,44.27165],[-79.60564,44.27003],[-79.60197,44.27242],[-79.59901,44.27153],[-79.5961,44.27225],[-79.59437,44.27028],[-79.5944,44.26835],[-79.59647,44.26725],[-79.59658,44.26534],[-79.59288,44.26555],[-79.5926,44.26472],[-79.59354,44.26325],[-79.59701,44.26191],[-79.59804,44.25885],[-79.5945,44.25685],[-79.59497,44.25602],[-79.59365,44.25567],[-79.5914,44.25148],[-79.58851,44.25043],[-79.58788,44.24403],[-79.58661,44.24325],[-79.58646,44.24043],[-79.58468,44.23773],[-79.58507,44.23583],[-79.58288,44.23419],[-79.58182,44.23025],[-79.58084,44.23016],[-79.58266,44.22835],[-79.58834,44.22722],[-79.59403,44.22395],[-79.59581,44.22372],[-79.5955,44.22264],[-79.59959,44.21824],[-79.59466,44.2141],[-79.59148,44.21306],[-79.58958,44.21404],[-79.58732,44.21296],[-79.58525,44.21322],[-79.58246,44.21109],[-79.58246,44.21002],[-79.5872,44.20567],[-79.58853,44.20575],[-79.59134,44.20438],[-79.59833,44.19982],[-79.60146,44.19636],[-79.60098,44.19561],[-79.60634,44.19132],[-79.60304,44.18962],[-79.60144,44.18998],[-79.60072,44.18862],[-79.59846,44.18768],[-79.59811,44.18643],[-79.5994,44.1859],[-79.59952,44.18425],[-79.59825,44.18278],[-79.60118,44.1815],[-79.60203,44.18035],[-79.60258,44.1773],[-79.60425,44.17631],[-79.60262,44.17524],[-79.60309,44.17372],[-79.60631,44.17147],[-79.60605,44.16999],[-79.60798,44.16948],[-79.60742,44.16812],[-79.61014,44.16865],[-79.61325,44.16512],[-79.61463,44.16464],[-79.61544,44.16556],[-79.61602,44.16421],[-79.61681,44.16473],[-79.6189,44.16443],[-79.62101,44.15802],[-79.61928,44.15681],[-79.62321,44.15349],[-79.62508,44.15376],[-79.62611,44.15249],[-79.62992,44.15237],[-79.63186,44.15108],[-79.62865,44.14641],[-79.63126,44.14481],[-79.62954,44.14408],[-79.62897,44.1413],[-79.62972,44.14048],[-79.62693,44.13656],[-79.62439,44.13514],[-79.62354,44.13252],[-79.62401,44.13183],[-79.62716,44.13166],[-79.62741,44.129],[-79.63298,44.12422],[-79.63266,44.12152],[-79.6296,44.11942],[-79.62982,44.11661],[-79.63423,44.11403],[-79.63277,44.10508],[-79.63692,44.10519],[-79.6392,44.10154],[-79.63765,44.09959],[-79.63875,44.09876],[-79.63899,44.09931],[-79.64039,44.09912],[-79.6453,44.09646],[-79.6443,44.09492],[-79.64506,44.09337],[-79.64826,44.09105],[-79.65951,44.0865],[-79.66243,44.0846],[-79.66256,44.0831],[-79.6688,44.07935],[-79.66919,44.07823],[-79.66762,44.07726],[-79.66677,44.07412],[-79.66953,44.07151],[-79.67129,44.07029],[-79.67712,44.07118],[-79.68118,44.06978],[-79.6803,44.06557],[-79.6812,44.06358],[-79.68043,44.06241],[-79.67796,44.06188],[-79.67717,44.05928],[-79.67517,44.05808],[-79.67794,44.05634],[-79.67692,44.05221],[-79.67873,44.0507],[-79.67804,44.04939],[-79.68046,44.04798],[-79.68513,44.04677],[-79.68592,44.04562],[-79.69069,44.04532],[-79.6941,44.044],[-79.69689,44.041],[-79.69924,44.04096],[-79.70204,44.03788],[-79.70319,44.03788],[-79.7043,44.03636],[-79.70672,44.0356],[-79.70738,44.03374],[-79.70984,44.03342],[-79.71127,44.03137],[-79.71523,44.02851],[-79.71952,44.02743],[-79.72449,44.02755],[-79.72701,44.02624],[-79.72843,44.02394],[-79.73099,44.02312],[-79.73418,44.02055],[-79.73303,44.01734],[-79.73352,44.01553],[-79.73666,44.01458],[-79.74083,44.01682],[-79.74611,44.01569],[-79.74615,44.0144],[-79.75121,44.01377],[-79.75542,44.01183],[-79.75658,44.00972],[-79.7614,44.00885],[-79.76279,44.00559],[-79.76553,44.00498],[-79.76633,44.00557],[-79.76992,44.00527],[-79.76963,44.0041],[-79.77471,44.0028],[-79.77513,44.00046],[-79.77784,43.99942],[-79.77791,43.9959],[-79.77553,43.99637],[-79.77476,43.99495],[-79.77198,43.99355],[-79.77116,43.99189],[-79.77174,43.9898],[-79.76982,43.98926],[-79.76635,43.98461],[-79.76863,43.98343],[-79.76897,43.98114],[-79.77051,43.9801],[-79.77231,43.98],[-79.7729,43.98108],[-79.77458,43.98067],[-79.77722,43.98186],[-79.77938,43.98174],[-79.77722,43.98046],[-79.77657,43.97785],[-79.77984,43.97572],[-79.77982,43.9732],[-79.77859,43.97215],[-79.77989,43.96937],[-79.77915,43.96867],[-79.78171,43.96709],[-79.78276,43.96528],[-79.78506,43.96542],[-79.7865,43.96455],[-79.78839,43.96505],[-79.79052,43.9629],[-79.78428,43.96096],[-79.78245,43.95822],[-79.7806,43.95795],[-79.77851,43.95553],[-79.77537,43.95531],[-79.77026,43.95896],[-79.76821,43.95878],[-79.76536,43.95982],[-79.76112,43.95708],[-79.75973,43.95708],[-79.75938,43.95826],[-79.75773,43.95859],[-79.75553,43.95617],[-79.75502,43.95686],[-79.7516,43.95696],[-79.74656,43.95469],[-79.74618,43.95196],[-79.74484,43.95114],[-79.74249,43.95261],[-79.74064,43.95212],[-79.73736,43.95268],[-79.73596,43.95438],[-79.73406,43.95472],[-79.73459,43.95574],[-79.73684,43.95664],[-79.73617,43.95792],[-79.7369,43.95931],[-79.73101,43.95825],[-79.72804,43.95882],[-79.72585,43.95778],[-79.7252,43.95896],[-79.72225,43.95931],[-79.72135,43.96018],[-79.72268,43.96299],[-79.71882,43.96333],[-79.71896,43.96492],[-79.71735,43.96573],[-79.71397,43.96468],[-79.71488,43.96116],[-79.70854,43.96206],[-79.70792,43.96096],[-79.70885,43.95841],[-79.70801,43.9578],[-79.70397,43.95772],[-79.70141,43.95638],[-79.70167,43.95528],[-79.70064,43.95426],[-79.69573,43.95535],[-79.69326,43.95449],[-79.68836,43.95584],[-79.68827,43.95759],[-79.68487,43.95807],[-79.68423,43.9599],[-79.68064,43.96223],[-79.67861,43.96182],[-79.67695,43.96242],[-79.67525,43.96131],[-79.67283,43.96164],[-79.67083,43.96031],[-79.66835,43.96039],[-79.66723,43.95957],[-79.66792,43.9571],[-79.66635,43.95653],[-79.66482,43.95309],[-79.66324,43.9536],[-79.66105,43.95101],[-79.6617,43.94841],[-79.66057,43.9468],[-79.66252,43.94531],[-79.65446,43.94209],[-79.64895,43.94356],[-79.64606,43.94228],[-79.63697,43.9434],[-79.63519,43.94301],[-79.63168,43.94382],[-79.62837,43.94661],[-79.63058,43.9486],[-79.62853,43.95062],[-79.62754,43.95354],[-79.62364,43.95566],[-79.62039,43.95522],[-79.61945,43.95603],[-79.61595,43.95542],[-79.615,43.95633],[-79.60987,43.95684],[-79.60805,43.95871],[-79.60367,43.95887],[-79.60308,43.95965],[-79.59937,43.95823],[-79.59785,43.95918],[-79.59485,43.95913],[-79.59346,43.96109],[-79.58941,43.96064],[-79.58789,43.96228],[-79.58492,43.96348],[-79.58091,43.9621],[-79.57679,43.96365],[-79.57452,43.96278],[-79.57282,43.9636],[-79.571,43.96337],[-79.56969,43.96432],[-79.56436,43.96477],[-79.56279,43.96657],[-79.55665,43.96496],[-79.55363,43.96661],[-79.55317,43.96762],[-79.54809,43.96786],[-79.54605,43.97108],[-79.54188,43.97248],[-79.53914,43.97252],[-79.53553,43.97461],[-79.53206,43.97459],[-79.53094,43.97705],[-79.52799,43.9771],[-79.52828,43.97867],[-79.53007,43.97985],[-79.52717,43.98265],[-79.52668,43.98014],[-79.52462,43.97732],[-79.5225,43.97714],[-79.52153,43.9762],[-79.52052,43.97674],[-79.51884,43.97615],[-79.51746,43.97282],[-79.51536,43.97112],[-79.51354,43.9716],[-79.51216,43.96906],[-79.50851,43.96838],[-79.50596,43.96927],[-79.50065,43.96482],[-79.49934,43.96663],[-79.49421,43.96503],[-79.49304,43.96577],[-79.49074,43.96564],[-79.48741,43.96424],[-79.48615,43.96012],[-79.4783,43.9618],[-79.474,43.96099],[-79.46777,43.96515],[-79.46633,43.96541],[-79.46549,43.96433],[-79.46326,43.96529],[-79.46223,43.96449],[-79.45916,43.96612],[-79.45684,43.9659],[-79.45733,43.96689],[-79.45507,43.96695],[-79.45448,43.96809],[-79.45189,43.96673],[-79.44957,43.96675],[-79.44787,43.9651],[-79.44294,43.96698],[-79.44223,43.96654],[-79.43927,43.96734],[-79.43776,43.96966],[-79.43318,43.97242],[-79.43098,43.97275],[-79.42972,43.97066],[-79.42702,43.97105],[-79.42647,43.97037],[-79.41814,43.97157],[-79.4196,43.97539],[-79.41776,43.97718],[-79.41941,43.97896],[-79.41636,43.97873],[-79.41477,43.97746],[-79.41238,43.97966],[-79.4107,43.97909],[-79.40983,43.98067],[-79.41107,43.98109],[-79.40904,43.98203],[-79.40833,43.9855],[-79.40582,43.98522],[-79.40501,43.98599],[-79.40354,43.98539],[-79.40231,43.98699],[-79.39628,43.98806],[-79.39486,43.99102],[-79.39305,43.99017],[-79.39004,43.99105],[-79.38624,43.99008],[-79.38221,43.99134],[-79.38051,43.99321],[-79.37977,43.99229],[-79.3771,43.99272],[-79.37444,43.99137],[-79.37498,43.99007],[-79.37712,43.98965],[-79.3763,43.98807],[-79.37427,43.98864],[-79.37168,43.9879],[-79.37147,43.98943],[-79.36805,43.98992],[-79.36667,43.99568],[-79.35953,43.99773],[-79.3601,44.00039],[-79.35755,43.99945],[-79.3565,44.00056],[-79.34832,44.00101],[-79.34428,43.99902],[-79.34232,43.99965],[-79.34129,43.99863],[-79.34212,43.99802],[-79.3385,43.99617],[-79.3379,43.99497],[-79.33022,43.99757],[-79.32988,43.99889],[-79.32638,43.99862],[-79.31813,44.00034],[-79.31013,44.00027],[-79.30549,44.00161],[-79.30403,44.00314],[-79.30174,44.00281],[-79.29569,44.00494],[-79.29116,44.00532],[-79.29072,44.00838],[-79.28846,44.00973],[-79.28713,44.00915],[-79.27949,44.00991],[-79.27649,44.01285],[-79.27727,44.01461],[-79.26929,44.01641],[-79.26872,44.01756],[-79.26402,44.01788],[-79.26551,44.02187],[-79.26375,44.02404],[-79.26142,44.02448],[-79.25989,44.0261],[-79.25638,44.02636],[-79.25586,44.02721],[-79.25195,44.02806],[-79.24886,44.02808],[-79.24599,44.02971],[-79.242,44.02389],[-79.2377,44.02486],[-79.23676,44.02672],[-79.23917,44.02817],[-79.23808,44.02852],[-79.23831,44.03017],[-79.23589,44.03356],[-79.23281,44.03018],[-79.22963,44.02952],[-79.22803,44.0268],[-79.224,44.02903],[-79.22209,44.02938],[-79.21895,44.02867],[-79.21772,44.02978],[-79.2144,44.03021],[-79.21111,44.02893],[-79.20562,44.03143],[-79.2037,44.03092],[-79.19975,44.02776],[-79.19686,44.028],[-79.1944,44.02994],[-79.19176,44.02958],[-79.1883,44.03201],[-79.18995,44.03555],[-79.19228,44.03553],[-79.19296,44.03821],[-79.19279,44.03951],[-79.19012,44.04088],[-79.18975,44.04234],[-79.19028,44.04361],[-79.1914,44.04372],[-79.19101,44.04699],[-79.18853,44.04844],[-79.18064,44.04741],[-79.18065,44.04413],[-79.17401,44.04391],[-79.17278,44.04446],[-79.17046,44.0426],[-79.16458,44.04286],[-79.16235,44.04231],[-79.16229,44.04099],[-79.15969,44.03928],[-79.16027,44.03737],[-79.15856,44.03749],[-79.15789,44.03562],[-79.15482,44.03675],[-79.15252,44.03582],[-79.1485,44.03686],[-79.14904,44.03799],[-79.14782,44.03928],[-79.14459,44.03914],[-79.14419,44.04064],[-79.13981,44.0406],[-79.13683,44.03737],[-79.1324,44.03869],[-79.12551,44.03817],[-79.12503,44.0362],[-79.12189,44.03627],[-79.12197,44.03453],[-79.12515,44.03161],[-79.12462,44.02786],[-79.11683,44.02535],[-79.11311,44.0254],[-79.11111,44.02394],[-79.10876,44.02401],[-79.10816,44.0255],[-79.10375,44.02626],[-79.10459,44.02896],[-79.10379,44.02992],[-79.10224,44.02785],[-79.09928,44.02633],[-79.09708,44.02648],[-79.0974,44.0274],[-79.09615,44.02903],[-79.09211,44.02962],[-79.0922,44.03107],[-79.08967,44.03223],[-79.08943,44.03435],[-79.0881,44.03573],[-79.09041,44.0383],[-79.08775,44.04023],[-79.08686,44.03994],[-79.089,44.04202],[-79.08581,44.0437],[-79.08593,44.04481],[-79.08778,44.04622],[-79.09104,44.04728],[-79.09287,44.04687],[-79.09342,44.04784],[-79.09464,44.04802],[-79.09336,44.04885],[-79.0939,44.05005],[-79.09841,44.0518],[-79.09862,44.05345],[-79.09751,44.05506],[-79.09337,44.05386],[-79.08756,44.05485],[-79.08539,44.05605],[-79.08422,44.05583],[-79.08288,44.05662],[-79.08232,44.05886],[-79.07927,44.06026],[-79.07763,44.06023],[-79.07761,44.06194],[-79.07563,44.0625],[-79.07215,44.06271],[-79.06991,44.06202],[-79.06834,44.05956],[-79.06408,44.06038],[-79.06705,44.06391],[-79.06652,44.06595],[-79.06799,44.06681],[-79.06658,44.0686],[-79.06814,44.07033],[-79.06845,44.07254],[-79.06787,44.07339],[-79.06282,44.07487],[-79.06267,44.07693],[-79.06373,44.07786],[-79.06273,44.07915],[-79.0638,44.07985],[-79.06432,44.08242],[-79.06773,44.08368],[-79.06915,44.08664],[-79.07178,44.08724],[-79.06825,44.09008],[-79.0681,44.09145],[-79.06621,44.09295],[-79.06661,44.09444],[-79.06872,44.09413],[-79.06993,44.09477],[-79.06871,44.09554],[-79.06912,44.0968],[-79.06819,44.09811],[-79.06541,44.10026],[-79.06595,44.10153],[-79.05927,44.10285],[-79.0579,44.10707],[-79.05302,44.10647],[-79.0539,44.10797],[-79.05211,44.11291],[-79.05352,44.11368],[-79.05438,44.11606],[-79.0532,44.11679],[-79.05156,44.12321],[-79.05341,44.12211],[-79.05823,44.12236],[-79.05723,44.12453],[-79.05814,44.12682],[-79.05708,44.12858],[-79.05395,44.12994],[-79.05794,44.12942],[-79.06138,44.131],[-79.06017,44.13266],[-79.06153,44.13417],[-79.06166,44.13594],[-79.0588,44.13966],[-79.05982,44.1404],[-79.05929,44.14298],[-79.05787,44.14266],[-79.04449,44.14579],[-79.04156,44.15078],[-79.04095,44.15475],[-79.04238,44.155],[-79.04263,44.16039],[-79.03944,44.16116],[-79.03821,44.16259],[-79.03279,44.16193],[-79.03148,44.16079],[-79.03028,44.16266],[-79.03116,44.16386],[-79.02974,44.16429],[-79.02933,44.16647],[-79.02654,44.17028],[-79.02729,44.17157],[-79.02638,44.17295],[-79.02696,44.17461],[-79.026,44.17842],[-79.02679,44.1809],[-79.02541,44.18424],[-79.02384,44.18536],[-79.02253,44.19196],[-79.01758,44.19323],[-79.01684,44.19979],[-79.01792,44.20085],[-79.01843,44.2078],[-79.01669,44.21009],[-79.01553,44.21475],[-79.01968,44.21687],[-79.01996,44.2184],[-79.01853,44.22043],[-79.0209,44.22302],[-79.02615,44.22264],[-79.02662,44.22339],[-79.02511,44.22584],[-79.02452,44.23102],[-79.02227,44.23171],[-79.01893,44.23158],[-79.01615,44.23428],[-79.01606,44.2381],[-79.0177,44.24043],[-79.0172,44.24232],[-79.01603,44.24289],[-79.01621,44.24413],[-79.01287,44.24769],[-79.00955,44.24964],[-79.00847,44.25144],[-79.00606,44.2522],[-79.00418,44.25515],[-79.0074,44.2568],[-79.00678,44.26013],[-79.00568,44.26131],[-79.00858,44.26199],[-79.01063,44.26129],[-79.01189,44.26447],[-79.0179,44.26462],[-79.01704,44.26668],[-79.0201,44.27326],[-79.01902,44.27385],[-79.0187,44.27598],[-79.01713,44.27776],[-79.01222,44.27971],[-79.01064,44.28215],[-79.01264,44.28626],[-79.01261,44.28872],[-79.01505,44.28979],[-79.01149,44.28938],[-79.00667,44.29191],[-79.00097,44.29736],[-78.99975,44.30085],[-78.99754,44.30279],[-78.99315,44.30327],[-78.99174,44.30226],[-78.98675,44.3029],[-78.98364,44.30468],[-78.98262,44.30713],[-78.97998,44.30837],[-78.97974,44.31246],[-78.97758,44.31445],[-78.97931,44.31633],[-78.97778,44.31778],[-78.97786,44.31861],[-78.97952,44.31937],[-78.97827,44.32128],[-78.98008,44.32286],[-78.97298,44.32759],[-78.97457,44.33088],[-78.97689,44.33018],[-78.98116,44.33058],[-78.98083,44.33372],[-78.97906,44.33473],[-78.98015,44.33637],[-78.97848,44.33576],[-78.97525,44.3361],[-78.97011,44.33858],[-78.97188,44.34215],[-78.96993,44.34469],[-78.97222,44.34534],[-78.97372,44.34363],[-78.9765,44.34432],[-78.97976,44.34359],[-78.98323,44.3453],[-78.97999,44.34654],[-78.98147,44.34842],[-78.97943,44.34983],[-78.97971,44.35145],[-78.97466,44.35423],[-78.97529,44.35588],[-78.97334,44.35701],[-78.97385,44.35909],[-78.97473,44.35877],[-78.9766,44.35981],[-78.97716,44.35923],[-78.97848,44.35995],[-78.98055,44.35966],[-78.97936,44.3608],[-78.98041,44.3623],[-78.97981,44.36316],[-78.97424,44.3648],[-78.96734,44.36802],[-78.96196,44.37287],[-78.96243,44.37366],[-78.95946,44.37584],[-78.95963,44.37719],[-78.9579,44.37861],[-78.95835,44.38061],[-78.96006,44.38212],[-78.9619,44.38239],[-78.96423,44.38152],[-78.96546,44.38281],[-78.96903,44.38226],[-78.9692,44.38284],[-78.9678,44.38337],[-78.96791,44.38452],[-78.97013,44.38541],[-78.97331,44.38477],[-78.97247,44.38767],[-78.97336,44.38934],[-78.96494,44.39135],[-78.96373,44.391],[-78.96256,44.39195],[-78.96451,44.39592],[-78.9626,44.39602],[-78.96293,44.39807],[-78.96083,44.39824],[-78.96082,44.39959],[-78.96325,44.40302],[-78.96338,44.40433],[-78.96255,44.40477],[-78.96714,44.40713],[-78.96769,44.41016],[-78.97008,44.4124],[-78.96859,44.41812],[-78.96959,44.41934],[-78.96905,44.42134],[-78.97153,44.4241],[-78.97424,44.42586],[-78.97508,44.4257],[-78.97461,44.42736],[-78.97557,44.42811],[-78.97504,44.42957],[-78.976,44.43079],[-78.97526,44.43315],[-78.97365,44.43391],[-78.97388,44.43506],[-78.97164,44.43709],[-78.973,44.44076],[-78.96678,44.44727],[-78.96774,44.44901],[-78.96346,44.44937],[-78.96372,44.45115],[-78.96242,44.45171],[-78.96424,44.45257],[-78.96869,44.46131],[-78.97142,44.46257],[-78.97195,44.4639],[-78.97073,44.46539],[-78.97187,44.46777],[-78.97083,44.46837],[-78.97162,44.4716],[-78.96891,44.47274],[-78.96572,44.48236],[-78.9627,44.48407],[-78.95844,44.48469],[-78.95548,44.48689],[-78.95495,44.48864],[-78.95496,44.48957],[-78.95686,44.4891],[-78.95914,44.49032],[-78.96116,44.4894],[-78.96458,44.49142],[-78.95691,44.49385],[-78.95732,44.4955],[-78.96146,44.49789],[-78.96159,44.49906],[-78.95676,44.50214],[-78.95989,44.50321],[-78.95985,44.50517],[-78.96108,44.50549],[-78.96036,44.50782],[-78.95832,44.50702],[-78.95437,44.50773],[-78.95511,44.51134],[-78.95648,44.51282],[-78.95439,44.51391],[-78.94876,44.51506],[-78.94647,44.51679],[-78.94451,44.51434],[-78.94004,44.51547],[-78.93903,44.51483],[-78.93908,44.51666],[-78.93516,44.51912],[-78.93323,44.52253],[-78.93226,44.52269],[-78.93,44.52063],[-78.93122,44.52426],[-78.9288,44.52417],[-78.92653,44.52794],[-78.92724,44.52913],[-78.91942,44.52905],[-78.9181,44.52994],[-78.91571,44.52971],[-78.91251,44.53145],[-78.91154,44.53293],[-78.90905,44.53334],[-78.91308,44.54202],[-78.90839,44.54416],[-78.90788,44.54626],[-78.90423,44.54793],[-78.905,44.54949],[-78.90346,44.54992],[-78.90271,44.55231],[-78.90094,44.55327],[-78.90037,44.55582],[-78.89781,44.5568],[-78.89745,44.55912],[-78.89808,44.56051],[-78.90011,44.56016],[-78.90277,44.56125],[-78.90255,44.56316],[-78.90404,44.5642],[-78.90244,44.56591],[-78.90516,44.56853],[-78.90145,44.57145],[-78.90178,44.57269],[-78.90379,44.57458],[-78.91051,44.5727],[-78.91419,44.57384],[-78.91292,44.57626],[-78.91365,44.57989],[-78.91642,44.58064],[-78.91413,44.5826],[-78.9163,44.58614],[-78.91167,44.58962],[-78.91347,44.59094],[-78.91389,44.59224],[-78.91307,44.59319],[-78.91412,44.5938],[-78.90454,44.60411],[-78.90636,44.60417],[-78.90682,44.60522],[-78.90832,44.60475],[-78.90696,44.60673],[-78.90796,44.60913],[-78.9051,44.61051],[-78.90286,44.61421],[-78.90052,44.61597],[-78.90108,44.61741],[-78.89804,44.62049],[-78.89862,44.62159],[-78.89654,44.62169],[-78.89576,44.62419],[-78.89276,44.62485],[-78.89196,44.62656],[-78.88988,44.62687],[-78.88964,44.62791],[-78.88572,44.62636],[-78.88728,44.62413],[-78.88672,44.62459],[-78.88217,44.62374],[-78.87593,44.62401],[-78.87429,44.62494],[-78.87413,44.62592],[-78.87083,44.62502],[-78.86994,44.62736],[-78.86871,44.62729],[-78.86765,44.62571],[-78.86773,44.62862],[-78.86886,44.62945],[-78.86587,44.62948],[-78.86217,44.63468],[-78.86037,44.63485],[-78.85909,44.63774],[-78.86185,44.63873],[-78.85927,44.64099],[-78.85945,44.64189],[-78.86045,44.64203],[-78.85705,44.6449],[-78.85701,44.64648],[-78.85423,44.64803],[-78.85424,44.64981],[-78.85235,44.65115],[-78.85246,44.65181],[-78.85432,44.65146],[-78.85517,44.65204],[-78.85428,44.65416],[-78.84956,44.65773],[-78.85121,44.65961],[-78.85303,44.65916],[-78.85041,44.6705],[-78.85456,44.67304],[-78.85819,44.67309],[-78.85889,44.6742],[-78.85516,44.67769],[-78.85005,44.67722],[-78.85043,44.67956],[-78.84869,44.67984],[-78.84625,44.68263],[-78.84524,44.68643],[-78.84305,44.6877],[-78.84133,44.69177],[-78.83935,44.69159],[-78.8385,44.69219],[-78.83879,44.69381],[-78.83323,44.69855],[-78.83206,44.70193],[-78.82935,44.70171],[-78.82837,44.70239],[-78.82765,44.70087],[-78.82394,44.69998],[-78.82109,44.70059],[-78.81833,44.69943],[-78.81682,44.701],[-78.81506,44.70127],[-78.81388,44.70369],[-78.81142,44.70507],[-78.81197,44.70689],[-78.8137,44.70723],[-78.81156,44.70965],[-78.81215,44.71008],[-78.81603,44.70826],[-78.81866,44.70889],[-78.81966,44.71162],[-78.82531,44.7119],[-78.82572,44.71373],[-78.82761,44.71409],[-78.82874,44.71251],[-78.83033,44.71204],[-78.83089,44.71282],[-78.83237,44.71164],[-78.83512,44.71115],[-78.83675,44.71127],[-78.83679,44.7121],[-78.84018,44.71319],[-78.83939,44.71925],[-78.84365,44.71899],[-78.84715,44.72053],[-78.84765,44.71985],[-78.84962,44.72036],[-78.84815,44.72378],[-78.84558,44.72621],[-78.84726,44.72948],[-78.85288,44.72724],[-78.85435,44.72521],[-78.85535,44.72052],[-78.85792,44.71825],[-78.85884,44.71859],[-78.86182,44.71773],[-78.86274,44.71853],[-78.86516,44.71838],[-78.86652,44.72016],[-78.86743,44.71981],[-78.86391,44.72979],[-78.8618,44.73169],[-78.86163,44.73475],[-78.85854,44.73605],[-78.86005,44.73707],[-78.85977,44.73774],[-78.85706,44.73827],[-78.85776,44.74066],[-78.85709,44.74141],[-78.85874,44.74337],[-78.86124,44.74117],[-78.86525,44.74107],[-78.86706,44.73982],[-78.86627,44.74263],[-78.86821,44.74219],[-78.87037,44.74309]]]}}]}