{"type":"FeatureCollection","features":[{"type":"Feature","properties":{"OGF_ID":601437995},"geometry":{"type":"Polygon","coordinates":[[[-81.65414,43.66139],[-81.66431,43.66142],[-81.6643,43.65764],[-81.65413,43.65762],[-81.65414,43.66139]]]}},{"type":"Feature","properties":{"OGF_ID":601437998},"geometry":{"type":"Polygon","coordinates":[[[-80.42283,43.34321],[-80.42414,43.34214],[-80.42418,43.33907],[-80.4216,43.33951],[-80.42283,43.34321]]]}},{"type":"Feature","properties":{"OGF_ID":601437999},"geometry":{"type":"Polygon","coordinates":[[[-80.63844,43.32993],[-80.6412,43.3325],[-80.64337,43.33294],[-80.64303,43.33061],[-80.63844,43.32993]]]}},{"type":"Feature","properties":{"OGF_ID":601437997},"geometry":{"type":"MultiPolygon","coordinates":[[[[-79.32871,43.06134],[-79.32542,43.06132],[-79.32546,43.06318],[-79.33106,43.0635],[-79.33089,43.06129],[-79.32871,43.06134]]],[[[-79.33102,43.06367],[-79.32842,43.06337],[-79.32851,43.0659],[-79.33111,43.06591],[-79.33102,43.06367]]]]}},{"type":"Feature","properties":{"OGF_ID":601437996},"geometry":{"type":"Polygon","coordinates":[[[-79.42708,42.88056],[-79.42201,42.88062],[-79.42205,42.88468],[-79.42716,42.8847],[-79.42708,42.88056]]]}},{"type":"Feature","properties":{"OGF_ID":851212857},"geometry":{"type":"Polygon","coordinates":[[[-81.41054,44.94186],[-81.41149,44.9413],[-81.41135,44.94012],[-81.41276,44.93958],[-81.41107,44.93905],[-81.41086,44.93821],[-81.40132,44.94094],[-81.39799,44.94461],[-81.39816,44.94756],[-81.39699,44.94968],[-81.39837,44.95175],[-81.38903,44.95869],[-81.39053,44.95897],[-81.39285,44.9565],[-81.39267,44.95724],[-81.39528,44.9589],[-81.39754,44.95739],[-81.39897,44.95783],[-81.40024,44.95719],[-81.39981,44.95826],[-81.4011,44.95793],[-81.40075,44.95877],[-81.40267,44.95794],[-81.40257,44.9586],[-81.40453,44.95807],[-81.40912,44.95974],[-81.41407,44.95846],[-81.41704,44.95669],[-81.41736,44.95544],[-81.41949,44.95407],[-81.41912,44.95146],[-81.41721,44.95134],[-81.41555,44.94968],[-81.41698,44.94779],[-81.41554,44.94742],[-81.41542,44.94584],[-81.41452,44.9458],[-81.41512,44.94472],[-81.41256,44.94251],[-81.41111,44.94276],[-81.41054,44.94186]]]}},{"type":"Feature","properties":{"OGF_ID":851212859},"geometry":{"type":"MultiPolygon","coordinates":[[[[-81.289,44.81417],[-81.29542,44.81227],[-81.2909,44.81022],[-81.28876,44.81082],[-81.289,44.81417]]],[[[-81.29116,44.81935],[-81.29338,44.81878],[-81.29087,44.8138],[-81.28869,44.81445],[-81.29053,44.81645],[-81.28973,44.81667],[-81.29116,44.81935]]]]}},{"type":"Feature","properties":{"OGF_ID":851212858},"geometry":{"type":"Polygon","coordinates":[[[-81.03655,44.5814],[-81.03554,44.57095],[-81.03063,44.57185],[-81.03145,44.58157],[-81.03655,44.5814]]]}},{"type":"Feature","properties":{"OGF_ID":900857586},"geometry":{"type":"Polygon","coordinates":[[[-76.50553,45.41315],[-76.51067,45.41725],[-76.51587,45.41372],[-76.5071,45.41209],[-76.50553,45.41315]]]}},{"type":"Feature","properties":{"OGF_ID":1250862458},"geometry":{"type":"Polygon","coordinates":[[[-76.4759,44.52481],[-76.47616,44.52738],[-76.48083,44.52717],[-76.48709,44.54308],[-76.46892,44.53997],[-76.46253,44.5401],[-76.46587,44.55087],[-76.46035,44.55088],[-76.45955,44.55258],[-76.46161,44.5539],[-76.46021,44.55515],[-76.46,44.55775],[-76.46393,44.55804],[-76.46871,44.56141],[-76.47231,44.56211],[-76.46933,44.56322],[-76.47016,44.56741],[-76.46571,44.57006],[-76.465,44.57214],[-76.46753,44.57294],[-76.47105,44.57258],[-76.47246,44.57902],[-76.47485,44.57842],[-76.47797,44.57979],[-76.48147,44.58023],[-76.48505,44.57948],[-76.48609,44.58135],[-76.48856,44.58254],[-76.49696,44.58145],[-76.50226,44.57866],[-76.51037,44.57711],[-76.51241,44.57992],[-76.51698,44.57983],[-76.51902,44.57889],[-76.52009,44.57675],[-76.52431,44.57558],[-76.53482,44.57074],[-76.54145,44.56536],[-76.54129,44.56288],[-76.54671,44.55415],[-76.54296,44.55281],[-76.54025,44.5527],[-76.53845,44.55134],[-76.53515,44.5514],[-76.53355,44.54716],[-76.53557,44.545],[-76.53853,44.54525],[-76.54797,44.54237],[-76.55146,44.54318],[-76.55991,44.53846],[-76.55647,44.5263],[-76.55813,44.52549],[-76.55725,44.52022],[-76.55034,44.52005],[-76.54911,44.51375],[-76.5515,44.50991],[-76.55359,44.50865],[-76.55362,44.50759],[-76.55457,44.50773],[-76.55383,44.4999],[-76.51708,44.49977],[-76.51587,44.50029],[-76.51642,44.50651],[-76.50571,44.5071],[-76.50516,44.50089],[-76.48816,44.50178],[-76.48837,44.50353],[-76.48717,44.50361],[-76.47844,44.51304],[-76.47822,44.51429],[-76.47994,44.51606],[-76.47891,44.51891],[-76.47568,44.52253],[-76.4759,44.52481]]]}},{"type":"Feature","properties":{"OGF_ID":1250862460},"geometry":{"type":"Polygon","coordinates":[[[-76.70979,44.11728],[-76.70363,44.11663],[-76.69907,44.11408],[-76.69904,44.11266],[-76.70004,44.11235],[-76.70219,44.10779],[-76.70136,44.10673],[-76.70361,44.10381],[-76.70299,44.10334],[-76.69787,44.10601],[-76.69743,44.10835],[-76.69358,44.11251],[-76.69051,44.12107],[-76.68349,44.12782],[-76.68306,44.13009],[-76.6804,44.13389],[-76.68224,44.13618],[-76.6813,44.13827],[-76.67608,44.14317],[-76.67035,44.14659],[-76.66319,44.14877],[-76.66231,44.15113],[-76.6585,44.15533],[-76.65208,44.16087],[-76.64655,44.164],[-76.64306,44.16488],[-76.62763,44.17198],[-76.62331,44.17522],[-76.6188,44.18032],[-76.61901,44.18192],[-76.62061,44.18341],[-76.62039,44.18634],[-76.62176,44.18724],[-76.62151,44.18669],[-76.6208,44.18598],[-76.62358,44.18579],[-76.62486,44.18703],[-76.63046,44.18667],[-76.63572,44.18761],[-76.6404,44.18927],[-76.64153,44.19179],[-76.64641,44.19147],[-76.652,44.18799],[-76.6558,44.18782],[-76.66292,44.1849],[-76.66531,44.1846],[-76.66883,44.18138],[-76.67502,44.17859],[-76.67716,44.17862],[-76.67701,44.18093],[-76.68016,44.18004],[-76.68241,44.18025],[-76.68763,44.17753],[-76.69544,44.17195],[-76.69807,44.17196],[-76.69867,44.17138],[-76.69844,44.17234],[-76.69808,44.17287],[-76.69683,44.17379],[-76.69779,44.17391],[-76.70329,44.17207],[-76.70304,44.17135],[-76.70564,44.16895],[-76.70881,44.16904],[-76.70952,44.16816],[-76.70727,44.17118],[-76.71018,44.1715],[-76.71149,44.16973],[-76.72327,44.16548],[-76.72491,44.16592],[-76.72544,44.16686],[-76.72329,44.1699],[-76.72081,44.17105],[-76.72052,44.17197],[-76.72392,44.17444],[-76.73293,44.16553],[-76.73469,44.1653],[-76.73714,44.16316],[-76.74368,44.16044],[-76.74488,44.15901],[-76.75397,44.15634],[-76.75684,44.15474],[-76.76212,44.15376],[-76.76231,44.15364],[-76.76212,44.15337],[-76.76265,44.15301],[-76.76356,44.15329],[-76.7645,44.15172],[-76.76747,44.15119],[-76.76923,44.14955],[-76.77618,44.14752],[-76.78241,44.14444],[-76.7851,44.14444],[-76.78843,44.1465],[-76.79536,44.14263],[-76.79726,44.14252],[-76.80037,44.14079],[-76.80438,44.13978],[-76.80687,44.1373],[-76.80722,44.13278],[-76.81263,44.12835],[-76.80839,44.12581],[-76.80688,44.12331],[-76.80384,44.1208],[-76.80434,44.11852],[-76.80198,44.11821],[-76.80134,44.11712],[-76.79659,44.11672],[-76.79235,44.11961],[-76.78686,44.12148],[-76.78341,44.12127],[-76.7803,44.11935],[-76.77897,44.11589],[-76.78112,44.11476],[-76.78274,44.11205],[-76.7812,44.10941],[-76.78592,44.10139],[-76.7745,44.10715],[-76.771,44.10761],[-76.76768,44.10708],[-76.76473,44.10533],[-76.76563,44.10232],[-76.76302,44.10326],[-76.75957,44.10317],[-76.75631,44.10275],[-76.75411,44.10158],[-76.75265,44.10439],[-76.7498,44.1056],[-76.74671,44.10925],[-76.74102,44.11337],[-76.73513,44.11468],[-76.73165,44.1144],[-76.72767,44.1133],[-76.72134,44.11004],[-76.718,44.111],[-76.71615,44.11256],[-76.71495,44.116],[-76.70979,44.11728]]]}},{"type":"Feature","properties":{"OGF_ID":1250862405},"geometry":{"type":"MultiPolygon","coordinates":[[[[-78.61215,44.131],[-78.60924,44.13163],[-78.60728,44.12735],[-78.59323,44.13038],[-78.59521,44.13467],[-78.58802,44.1363],[-78.59362,44.14867],[-78.6006,44.1472],[-78.59801,44.14108],[-78.60475,44.13956],[-78.60749,44.14573],[-78.61725,44.14362],[-78.61215,44.131]]],[[[-78.60749,44.14573],[-78.6006,44.1472],[-78.60345,44.15402],[-78.60724,44.15324],[-78.61037,44.15245],[-78.60749,44.14573]]]]}},{"type":"Feature","properties":{"OGF_ID":1250862459},"geometry":{"type":"Polygon","coordinates":[[[-77.33804,43.94526],[-77.33229,43.94283],[-77.32738,43.9395],[-77.31499,43.92868],[-77.30128,43.91619],[-77.28491,43.89798],[-77.27875,43.89761],[-77.27743,43.89958],[-77.27665,43.89828],[-77.27176,43.89968],[-77.27041,43.9016],[-77.26786,43.90265],[-77.26641,43.90441],[-77.2646,43.90414],[-77.26275,43.90673],[-77.26927,43.90846],[-77.27333,43.90775],[-77.27256,43.90947],[-77.27351,43.90935],[-77.27443,43.90717],[-77.27701,43.91162],[-77.27641,43.91297],[-77.28076,43.91434],[-77.28029,43.91579],[-77.28161,43.91716],[-77.28635,43.91801],[-77.29224,43.92333],[-77.29667,43.92515],[-77.30066,43.92559],[-77.30159,43.92716],[-77.30587,43.92939],[-77.30871,43.9322],[-77.30962,43.93475],[-77.31312,43.93595],[-77.31356,43.93774],[-77.3154,43.93814],[-77.31011,43.94106],[-77.31362,43.94127],[-77.31697,43.93847],[-77.31924,43.94249],[-77.32977,43.9475],[-77.33145,43.95035],[-77.33352,43.9508],[-77.33668,43.95032],[-77.33804,43.94526]]]}},{"type":"Feature","properties":{"OGF_ID":1250862461},"geometry":{"type":"Polygon","coordinates":[[[-76.91292,43.93538],[-76.89658,43.92618],[-76.89667,43.92357],[-76.89257,43.92414],[-76.88943,43.92732],[-76.88456,43.9292],[-76.87904,43.92955],[-76.87038,43.92867],[-76.86745,43.9306],[-76.85979,43.93318],[-76.85851,43.93722],[-76.8608,43.93728],[-76.86505,43.93531],[-76.86105,43.93734],[-76.85904,43.94099],[-76.86517,43.94823],[-76.87009,43.94615],[-76.87502,43.94728],[-76.87755,43.94621],[-76.88572,43.94539],[-76.8897,43.94286],[-76.90219,43.94032],[-76.91283,43.93606],[-76.91292,43.93538]]]}},{"type":"Feature","properties":{"OGF_ID":67031388},"geometry":{"type":"Polygon","coordinates":[[[-77.06845,45.62585],[-77.06684,45.62605],[-77.06544,45.62471],[-77.06034,45.62259],[-77.05485,45.62216],[-77.0619,45.6269],[-77.06386,45.62727],[-77.0679,45.62982],[-77.06832,45.63106],[-77.06645,45.63328],[-77.07487,45.63842],[-77.07429,45.63697],[-77.07663,45.63622],[-77.07728,45.63287],[-77.07933,45.63265],[-77.07944,45.63184],[-77.07502,45.62869],[-77.07324,45.6246],[-77.06845,45.62585]]]}}]}