{"type":"FeatureCollection","features":[{"type":"Feature","properties":{"OGF_ID":210242233,"OFFICIAL_NAME":"Bracebridge","NATIONAL_CONCISE_CODE":"TOWN/VIL2"},"geometry":{"type":"Point","coordinates":[-79.19005,45.02644]}},{"type":"Feature","properties":{"OGF_ID":210237329,"OFFICIAL_NAME":"Tillsonburg","NATIONAL_CONCISE_CODE":"TOWN/VIL2"},"geometry":{"type":"Point","coordinates":[-80.7307,42.86794]}},{"type":"Feature","properties":{"OGF_ID":210217202,"OFFICIAL_NAME":"Gravenhurst","NATIONAL_CONCISE_CODE":"TOWN/VIL2"},"geometry":{"type":"Point","coordinates":[-79.33937,44.86862]}},{"type":"Feature","properties":{"OGF_ID":210241816,"OFFICIAL_NAME":"Woodstock","NATIONAL_CONCISE_CODE":"CITY/VIL1"},"geometry":{"type":"Point","coordinates":[-80.73787,43.13728]}},{"type":"Feature","properties":{"OGF_ID":210251745,"OFFICIAL_NAME":"Sarnia","NATIONAL_CONCISE_CODE":"CITY/VIL1"},"geometry":{"type":"Point","coordinates":[-82.31775,42.98141]}},{"type":"Feature","properties":{"OGF_ID":210247901,"OFFICIAL_NAME":"Petrolia","NATIONAL_CONCISE_CODE":"TOWN/VIL2"},"geometry":{"type":"Point","coordinates":[-82.14422,42.88609]}},{"type":"Feature","properties":{"OGF_ID":210248214,"OFFICIAL_NAME":"St. Thomas","NATIONAL_CONCISE_CODE":"CITY/VIL1"},"geometry":{"type":"Point","coordinates":[-81.18548,42.78087]}},{"type":"Feature","properties":{"OGF_ID":210254912,"OFFICIAL_NAME":"Mono","NATIONAL_CONCISE_CODE":"TOWN/VIL2"},"geometry":{"type":"Point","coordinates":[-80.0581,44.01739]}},{"type":"Feature","properties":{"OGF_ID":210256633,"OFFICIAL_NAME":"Killarney","NATIONAL_CONCISE_CODE":"TOWN/VIL2"},"geometry":{"type":"Point","coordinates":[-80.98231,46.06089]}},{"type":"Feature","properties":{"OGF_ID":210208494,"OFFICIAL_NAME":"Cobourg","NATIONAL_CONCISE_CODE":"TOWN/VIL2"},"geometry":{"type":"Point","coordinates":[-78.16481,43.96311]}},{"type":"Feature","properties":{"OGF_ID":210202052,"OFFICIAL_NAME":"Barrie","NATIONAL_CONCISE_CODE":"CITY/VIL1"},"geometry":{"type":"Point","coordinates":[-79.67697,44.37124]}},{"type":"Feature","properties":{"OGF_ID":210239918,"OFFICIAL_NAME":"Waterloo","NATIONAL_CONCISE_CODE":"CITY/VIL1"},"geometry":{"type":"Point","coordinates":[-80.54105,43.47966]}},{"type":"Feature","properties":{"OGF_ID":210256680,"OFFICIAL_NAME":"Erin","NATIONAL_CONCISE_CODE":"TOWN/VIL2"},"geometry":{"type":"Point","coordinates":[-80.12424,43.74256]}},{"type":"Feature","properties":{"OGF_ID":210252753,"OFFICIAL_NAME":"Niagara Falls","NATIONAL_CONCISE_CODE":"CITY/VIL1"},"geometry":{"type":"Point","coordinates":[-79.10671,43.06012]}},{"type":"Feature","properties":{"OGF_ID":210256639,"OFFICIAL_NAME":"County of Brant","NATIONAL_CONCISE_CODE":"CITY/VIL1"},"geometry":{"type":"Point","coordinates":[-80.28147,43.13923]}},{"type":"Feature","properties":{"OGF_ID":210205062,"OFFICIAL_NAME":"Brantford","NATIONAL_CONCISE_CODE":"CITY/VIL1"},"geometry":{"type":"Point","coordinates":[-80.25746,43.15686]}},{"type":"Feature","properties":{"OGF_ID":210252364,"OFFICIAL_NAME":"Fort Erie","NATIONAL_CONCISE_CODE":"TOWN/VIL2"},"geometry":{"type":"Point","coordinates":[-79.022,42.92261]}},{"type":"Feature","properties":{"OGF_ID":210252372,"OFFICIAL_NAME":"Kitchener","NATIONAL_CONCISE_CODE":"CITY/VIL1"},"geometry":{"type":"Point","coordinates":[-80.47274,43.41858]}},{"type":"Feature","properties":{"OGF_ID":210252377,"OFFICIAL_NAME":"St. Marys","NATIONAL_CONCISE_CODE":"TOWN/VIL2"},"geometry":{"type":"Point","coordinates":[-81.13315,43.25951]}},{"type":"Feature","properties":{"OGF_ID":210228778,"OFFICIAL_NAME":"Niagara-on-the-Lake","NATIONAL_CONCISE_CODE":"TOWN/VIL2"},"geometry":{"type":"Point","coordinates":[-79.12806,43.20457]}},{"type":"Feature","properties":{"OGF_ID":210206459,"OFFICIAL_NAME":"Cambridge","NATIONAL_CONCISE_CODE":"CITY/VIL1"},"geometry":{"type":"Point","coordinates":[-80.31137,43.39725]}},{"type":"Feature","properties":{"OGF_ID":210217588,"OFFICIAL_NAME":"Grimsby","NATIONAL_CONCISE_CODE":"TOWN/VIL2"},"geometry":{"type":"Point","coordinates":[-79.57266,43.18584]}},{"type":"Feature","properties":{"OGF_ID":210229911,"OFFICIAL_NAME":"Port Colborne","NATIONAL_CONCISE_CODE":"CITY/VIL1"},"geometry":{"type":"Point","coordinates":[-79.19297,42.91562]}},{"type":"Feature","properties":{"OGF_ID":210223092,"OFFICIAL_NAME":"Thorold","NATIONAL_CONCISE_CODE":"CITY/VIL1"},"geometry":{"type":"Point","coordinates":[-79.22326,43.07218]}},{"type":"Feature","properties":{"OGF_ID":210217693,"OFFICIAL_NAME":"Guelph","NATIONAL_CONCISE_CODE":"CITY/VIL1"},"geometry":{"type":"Point","coordinates":[-80.229,43.53571]}},{"type":"Feature","properties":{"OGF_ID":210256569,"OFFICIAL_NAME":"Greater Napanee","NATIONAL_CONCISE_CODE":"TOWN/VIL2"},"geometry":{"type":"Point","coordinates":[-76.96857,44.23755]}},{"type":"Feature","properties":{"OGF_ID":210256675,"OFFICIAL_NAME":"Kingston","NATIONAL_CONCISE_CODE":"CITY/VIL1"},"geometry":{"type":"Point","coordinates":[-76.41633,44.30672]}},{"type":"Feature","properties":{"OGF_ID":210256694,"OFFICIAL_NAME":"Brighton","NATIONAL_CONCISE_CODE":"TOWN/VIL2"},"geometry":{"type":"Point","coordinates":[-77.76416,44.12227]}},{"type":"Feature","properties":{"OGF_ID":210256699,"OFFICIAL_NAME":"Kawartha Lakes","NATIONAL_CONCISE_CODE":"CITY/VIL1"},"geometry":{"type":"Point","coordinates":[-78.8321,44.58758]}},{"type":"Feature","properties":{"OGF_ID":210224654,"OFFICIAL_NAME":"Lincoln","NATIONAL_CONCISE_CODE":"TOWN/VIL2"},"geometry":{"type":"Point","coordinates":[-79.41838,43.15274]}},{"type":"Feature","properties":{"OGF_ID":210216479,"OFFICIAL_NAME":"Goderich","NATIONAL_CONCISE_CODE":"TOWN/VIL2"},"geometry":{"type":"Point","coordinates":[-81.70455,43.73813]}},{"type":"Feature","properties":{"OGF_ID":210255680,"OFFICIAL_NAME":"Prince Edward","NATIONAL_CONCISE_CODE":"CITY/VIL1"},"geometry":{"type":"Point","coordinates":[-77.25581,44.02311]}},{"type":"Feature","properties":{"OGF_ID":210239821,"OFFICIAL_NAME":"Wasaga Beach","NATIONAL_CONCISE_CODE":"TOWN/VIL2"},"geometry":{"type":"Point","coordinates":[-80.01703,44.49913]}},{"type":"Feature","properties":{"OGF_ID":210242240,"OFFICIAL_NAME":"Orangeville","NATIONAL_CONCISE_CODE":"TOWN/VIL2"},"geometry":{"type":"Point","coordinates":[-80.10852,43.91527]}},{"type":"Feature","properties":{"OGF_ID":210242243,"OFFICIAL_NAME":"Owen Sound","NATIONAL_CONCISE_CODE":"CITY/VIL1"},"geometry":{"type":"Point","coordinates":[-80.93067,44.56981]}},{"type":"Feature","properties":{"OGF_ID":210201588,"OFFICIAL_NAME":"Aylmer","NATIONAL_CONCISE_CODE":"TOWN/VIL2"},"geometry":{"type":"Point","coordinates":[-80.98261,42.78257]}},{"type":"Feature","properties":{"OGF_ID":210213799,"OFFICIAL_NAME":"Espanola","NATIONAL_CONCISE_CODE":"TOWN/VIL2"},"geometry":{"type":"Point","coordinates":[-81.75733,46.242]}},{"type":"Feature","properties":{"OGF_ID":210235576,"OFFICIAL_NAME":"Stratford","NATIONAL_CONCISE_CODE":"CITY/VIL1"},"geometry":{"type":"Point","coordinates":[-80.97636,43.37255]}},{"type":"Feature","properties":{"OGF_ID":210216757,"OFFICIAL_NAME":"Gore Bay","NATIONAL_CONCISE_CODE":"TOWN/VIL2"},"geometry":{"type":"Point","coordinates":[-82.46468,45.91605]}},{"type":"Feature","properties":{"OGF_ID":210244616,"OFFICIAL_NAME":"Penetanguishene","NATIONAL_CONCISE_CODE":"TOWN/VIL2"},"geometry":{"type":"Point","coordinates":[-79.90006,44.78395]}},{"type":"Feature","properties":{"OGF_ID":210245251,"OFFICIAL_NAME":"Orillia","NATIONAL_CONCISE_CODE":"CITY/VIL1"},"geometry":{"type":"Point","coordinates":[-79.42392,44.6043]}},{"type":"Feature","properties":{"OGF_ID":210252110,"OFFICIAL_NAME":"Midland","NATIONAL_CONCISE_CODE":"TOWN/VIL2"},"geometry":{"type":"Point","coordinates":[-79.88367,44.75034]}},{"type":"Feature","properties":{"OGF_ID":210231332,"OFFICIAL_NAME":"Renfrew","NATIONAL_CONCISE_CODE":"TOWN/VIL2"},"geometry":{"type":"Point","coordinates":[-76.68282,45.4732]}},{"type":"Feature","properties":{"OGF_ID":210255987,"OFFICIAL_NAME":"New Tecumseth","NATIONAL_CONCISE_CODE":"TOWN/VIL2"},"geometry":{"type":"Point","coordinates":[-79.76563,44.08478]}},{"type":"Feature","properties":{"OGF_ID":210229724,"OFFICIAL_NAME":"Pembroke","NATIONAL_CONCISE_CODE":"CITY/VIL1"},"geometry":{"type":"Point","coordinates":[-77.11112,45.82047]}},{"type":"Feature","properties":{"OGF_ID":210251530,"OFFICIAL_NAME":"Mattawa","NATIONAL_CONCISE_CODE":"TOWN/VIL2"},"geometry":{"type":"Point","coordinates":[-78.70973,46.31294]}},{"type":"Feature","properties":{"OGF_ID":210256714,"OFFICIAL_NAME":"Meaford","NATIONAL_CONCISE_CODE":"TOWN/VIL2"},"geometry":{"type":"Point","coordinates":[-80.74342,44.59117]}},{"type":"Feature","properties":{"OGF_ID":210254891,"OFFICIAL_NAME":"Innisfil","NATIONAL_CONCISE_CODE":"TOWN/VIL2"},"geometry":{"type":"Point","coordinates":[-79.618,44.27462]}},{"type":"Feature","properties":{"OGF_ID":210218345,"OFFICIAL_NAME":"Hanover","NATIONAL_CONCISE_CODE":"TOWN/VIL2"},"geometry":{"type":"Point","coordinates":[-81.02328,44.15436]}},{"type":"Feature","properties":{"OGF_ID":210205043,"OFFICIAL_NAME":"Brampton","NATIONAL_CONCISE_CODE":"CITY/VIL1"},"geometry":{"type":"Point","coordinates":[-79.76078,43.68825]}},{"type":"Feature","properties":{"OGF_ID":210256520,"OFFICIAL_NAME":"Clarington","NATIONAL_CONCISE_CODE":"TOWN/VIL2"},"geometry":{"type":"Point","coordinates":[-78.67502,43.99478]}},{"type":"Feature","properties":{"OGF_ID":210256703,"OFFICIAL_NAME":"Powassan","NATIONAL_CONCISE_CODE":"TOWN/VIL2"},"geometry":{"type":"Point","coordinates":[-79.34531,46.05478]}},{"type":"Feature","properties":{"OGF_ID":210200032,"OFFICIAL_NAME":"Pickering","NATIONAL_CONCISE_CODE":"TOWN/VIL2"},"geometry":{"type":"Point","coordinates":[-79.13097,43.90688]}},{"type":"Feature","properties":{"OGF_ID":210228812,"OFFICIAL_NAME":"North Bay","NATIONAL_CONCISE_CODE":"CITY/VIL1"},"geometry":{"type":"Point","coordinates":[-79.45912,46.31447]}},{"type":"Feature","properties":{"OGF_ID":210211640,"OFFICIAL_NAME":"Caledon","NATIONAL_CONCISE_CODE":"TOWN/VIL2"},"geometry":{"type":"Point","coordinates":[-79.85901,43.86605]}},{"type":"Feature","properties":{"OGF_ID":210253053,"OFFICIAL_NAME":"East Gwillimbury","NATIONAL_CONCISE_CODE":"TOWN/VIL2"},"geometry":{"type":"Point","coordinates":[-79.42393,44.13925]}},{"type":"Feature","properties":{"OGF_ID":210256662,"OFFICIAL_NAME":"Laurentian Hills","NATIONAL_CONCISE_CODE":"TOWN/VIL2"},"geometry":{"type":"Point","coordinates":[-77.5122,45.97977]}},{"type":"Feature","properties":{"OGF_ID":210256679,"OFFICIAL_NAME":"Petawawa","NATIONAL_CONCISE_CODE":"TOWN/VIL2"},"geometry":{"type":"Point","coordinates":[-77.31774,45.88394]}},{"type":"Feature","properties":{"OGF_ID":210256623,"OFFICIAL_NAME":"Toronto","NATIONAL_CONCISE_CODE":"CITY/VIL1"},"geometry":{"type":"Point","coordinates":[-79.37338,43.74172]}},{"type":"Feature","properties":{"OGF_ID":210200394,"OFFICIAL_NAME":"Ajax","NATIONAL_CONCISE_CODE":"TOWN/VIL2"},"geometry":{"type":"Point","coordinates":[-79.03635,43.85821]}},{"type":"Feature","properties":{"OGF_ID":210215981,"OFFICIAL_NAME":"Georgina","NATIONAL_CONCISE_CODE":"TOWN/VIL2"},"geometry":{"type":"Point","coordinates":[-79.32453,44.28052]}},{"type":"Feature","properties":{"OGF_ID":210229128,"OFFICIAL_NAME":"Oakville","NATIONAL_CONCISE_CODE":"TOWN/VIL2"},"geometry":{"type":"Point","coordinates":[-79.71378,43.45649]}},{"type":"Feature","properties":{"OGF_ID":210245664,"OFFICIAL_NAME":"Markham","NATIONAL_CONCISE_CODE":"TOWN/VIL2"},"geometry":{"type":"Point","coordinates":[-79.2634,43.87653]}},{"type":"Feature","properties":{"OGF_ID":210246197,"OFFICIAL_NAME":"Whitchurch-Stouffville","NATIONAL_CONCISE_CODE":"TOWN/VIL2"},"geometry":{"type":"Point","coordinates":[-79.31746,44.00863]}},{"type":"Feature","properties":{"OGF_ID":210245315,"OFFICIAL_NAME":"Oshawa","NATIONAL_CONCISE_CODE":"CITY/VIL1"},"geometry":{"type":"Point","coordinates":[-78.85728,43.90046]}},{"type":"Feature","properties":{"OGF_ID":210240707,"OFFICIAL_NAME":"Whitby","NATIONAL_CONCISE_CODE":"TOWN/VIL2"},"geometry":{"type":"Point","coordinates":[-78.95438,43.9325]}},{"type":"Feature","properties":{"OGF_ID":210251607,"OFFICIAL_NAME":"Mississauga","NATIONAL_CONCISE_CODE":"CITY/VIL1"},"geometry":{"type":"Point","coordinates":[-79.65711,43.58566]}},{"type":"Feature","properties":{"OGF_ID":210220811,"OFFICIAL_NAME":"Ingersoll","NATIONAL_CONCISE_CODE":"TOWN/VIL2"},"geometry":{"type":"Point","coordinates":[-80.87399,43.04062]}},{"type":"Feature","properties":{"OGF_ID":210242242,"OFFICIAL_NAME":"Newmarket","NATIONAL_CONCISE_CODE":"TOWN/VIL2"},"geometry":{"type":"Point","coordinates":[-79.45835,44.05794]}},{"type":"Feature","properties":{"OGF_ID":210242251,"OFFICIAL_NAME":"Milton","NATIONAL_CONCISE_CODE":"TOWN/VIL2"},"geometry":{"type":"Point","coordinates":[-79.91782,43.50562]}},{"type":"Feature","properties":{"OGF_ID":210222392,"OFFICIAL_NAME":"Kearney","NATIONAL_CONCISE_CODE":"TOWN/VIL2"},"geometry":{"type":"Point","coordinates":[-79.11792,45.62506]}},{"type":"Feature","properties":{"OGF_ID":210208686,"OFFICIAL_NAME":"Collingwood","NATIONAL_CONCISE_CODE":"TOWN/VIL2"},"geometry":{"type":"Point","coordinates":[-80.24071,44.5014]}},{"type":"Feature","properties":{"OGF_ID":210256702,"OFFICIAL_NAME":"Lambton Shores","NATIONAL_CONCISE_CODE":"CITY/VIL1"},"geometry":{"type":"Point","coordinates":[-81.89542,43.17534]}},{"type":"Feature","properties":{"OGF_ID":210226008,"OFFICIAL_NAME":"London","NATIONAL_CONCISE_CODE":"CITY/VIL1"},"geometry":{"type":"Point","coordinates":[-81.23243,42.96747]}},{"type":"Feature","properties":{"OGF_ID":210256648,"OFFICIAL_NAME":"Plympton-Wyoming","NATIONAL_CONCISE_CODE":"TOWN/VIL2"},"geometry":{"type":"Point","coordinates":[-82.10598,43.0198]}},{"type":"Feature","properties":{"OGF_ID":210256671,"OFFICIAL_NAME":"Leamington","NATIONAL_CONCISE_CODE":"TOWN/VIL2"},"geometry":{"type":"Point","coordinates":[-82.55906,42.09535]}},{"type":"Feature","properties":{"OGF_ID":210256575,"OFFICIAL_NAME":"Chatham-Kent","NATIONAL_CONCISE_CODE":"CITY/VIL1"},"geometry":{"type":"Point","coordinates":[-82.12876,42.43396]}},{"type":"Feature","properties":{"OGF_ID":210256596,"OFFICIAL_NAME":"North Perth","NATIONAL_CONCISE_CODE":"TOWN/VIL2"},"geometry":{"type":"Point","coordinates":[-80.96732,43.72507]}},{"type":"Feature","properties":{"OGF_ID":210256635,"OFFICIAL_NAME":"South Bruce Peninsula","NATIONAL_CONCISE_CODE":"TOWN/VIL2"},"geometry":{"type":"Point","coordinates":[-81.21871,44.70534]}},{"type":"Feature","properties":{"OGF_ID":210256571,"OFFICIAL_NAME":"Northeastern Manitoulin and the Islands","NATIONAL_CONCISE_CODE":"TOWN/VIL2"},"geometry":{"type":"Point","coordinates":[-82.10125,45.87145]}},{"type":"Feature","properties":{"OGF_ID":210256689,"OFFICIAL_NAME":"Huron East","NATIONAL_CONCISE_CODE":"TOWN/VIL2"},"geometry":{"type":"Point","coordinates":[-81.28456,43.62506]}},{"type":"Feature","properties":{"OGF_ID":210256572,"OFFICIAL_NAME":"Quinte West","NATIONAL_CONCISE_CODE":"CITY/VIL1"},"geometry":{"type":"Point","coordinates":[-77.58192,44.19644]}},{"type":"Feature","properties":{"OGF_ID":210218177,"OFFICIAL_NAME":"Halton Hills","NATIONAL_CONCISE_CODE":"TOWN/VIL2"},"geometry":{"type":"Point","coordinates":[-79.95147,43.62691]}},{"type":"Feature","properties":{"OGF_ID":210220506,"OFFICIAL_NAME":"Huntsville","NATIONAL_CONCISE_CODE":"TOWN/VIL2"},"geometry":{"type":"Point","coordinates":[-79.27733,45.31098]}},{"type":"Feature","properties":{"OGF_ID":210231503,"OFFICIAL_NAME":"Richmond Hill","NATIONAL_CONCISE_CODE":"TOWN/VIL2"},"geometry":{"type":"Point","coordinates":[-79.43935,43.87476]}},{"type":"Feature","properties":{"OGF_ID":210239013,"OFFICIAL_NAME":"Vaughan","NATIONAL_CONCISE_CODE":"CITY/VIL1"},"geometry":{"type":"Point","coordinates":[-79.5354,43.85281]}},{"type":"Feature","properties":{"OGF_ID":210242237,"OFFICIAL_NAME":"Deseronto","NATIONAL_CONCISE_CODE":"TOWN/VIL2"},"geometry":{"type":"Point","coordinates":[-77.05095,44.19657]}},{"type":"Feature","properties":{"OGF_ID":210242248,"OFFICIAL_NAME":"Peterborough","NATIONAL_CONCISE_CODE":"CITY/VIL1"},"geometry":{"type":"Point","coordinates":[-78.33335,44.30116]}},{"type":"Feature","properties":{"OGF_ID":210243546,"OFFICIAL_NAME":"Shelburne","NATIONAL_CONCISE_CODE":"TOWN/VIL2"},"geometry":{"type":"Point","coordinates":[-80.20452,44.07644]}},{"type":"Feature","properties":{"OGF_ID":210243549,"OFFICIAL_NAME":"Aurora","NATIONAL_CONCISE_CODE":"TOWN/VIL2"},"geometry":{"type":"Point","coordinates":[-79.46988,43.99763]}},{"type":"Feature","properties":{"OGF_ID":210248119,"OFFICIAL_NAME":"Parry Sound","NATIONAL_CONCISE_CODE":"TOWN/VIL2"},"geometry":{"type":"Point","coordinates":[-80.03608,45.35392]}},{"type":"Feature","properties":{"OGF_ID":210254911,"OFFICIAL_NAME":"Minto","NATIONAL_CONCISE_CODE":"TOWN/VIL2"},"geometry":{"type":"Point","coordinates":[-80.88177,43.91978]}},{"type":"Feature","properties":{"OGF_ID":210256598,"OFFICIAL_NAME":"Lakeshore","NATIONAL_CONCISE_CODE":"TOWN/VIL2"},"geometry":{"type":"Point","coordinates":[-82.68766,42.24812]}},{"type":"Feature","properties":{"OGF_ID":210255991,"OFFICIAL_NAME":"Bradford West Gwillimbury","NATIONAL_CONCISE_CODE":"TOWN/VIL2"},"geometry":{"type":"Point","coordinates":[-79.61731,44.13737]}},{"type":"Feature","properties":{"OGF_ID":210256619,"OFFICIAL_NAME":"Blue Mountains","NATIONAL_CONCISE_CODE":"TOWN/VIL2"},"geometry":{"type":"Point","coordinates":[-80.40148,44.47811]}},{"type":"Feature","properties":{"OGF_ID":210256638,"OFFICIAL_NAME":"Saugeen Shores","NATIONAL_CONCISE_CODE":"TOWN/VIL2"},"geometry":{"type":"Point","coordinates":[-81.37455,44.40562]}},{"type":"Feature","properties":{"OGF_ID":210256656,"OFFICIAL_NAME":"South Huron","NATIONAL_CONCISE_CODE":"TOWN/VIL2"},"geometry":{"type":"Point","coordinates":[-81.50485,43.31646]}},{"type":"Feature","properties":{"OGF_ID":210256657,"OFFICIAL_NAME":"Bluewater","NATIONAL_CONCISE_CODE":"TOWN/VIL2"},"geometry":{"type":"Point","coordinates":[-81.60291,43.47673]}},{"type":"Feature","properties":{"OGF_ID":210256626,"OFFICIAL_NAME":"French River","NATIONAL_CONCISE_CODE":"TOWN/VIL2"},"geometry":{"type":"Point","coordinates":[-80.48146,46.14228]}},{"type":"Feature","properties":{"OGF_ID":210256670,"OFFICIAL_NAME":"Kingsville","NATIONAL_CONCISE_CODE":"TOWN/VIL2"},"geometry":{"type":"Point","coordinates":[-82.72962,42.10368]}},{"type":"Feature","properties":{"OGF_ID":210256673,"OFFICIAL_NAME":"Bancroft","NATIONAL_CONCISE_CODE":"TOWN/VIL2"},"geometry":{"type":"Point","coordinates":[-77.75776,45.05505]}},{"type":"Feature","properties":{"OGF_ID":210256710,"OFFICIAL_NAME":"Hamilton","NATIONAL_CONCISE_CODE":"CITY/VIL1"},"geometry":{"type":"Point","coordinates":[-79.98935,43.24285]}},{"type":"Feature","properties":{"OGF_ID":210256632,"OFFICIAL_NAME":"St.-Charles","NATIONAL_CONCISE_CODE":"TOWN/VIL2"},"geometry":{"type":"Point","coordinates":[-80.47368,46.35061]}},{"type":"Feature","properties":{"OGF_ID":210243548,"OFFICIAL_NAME":"St. Catharines","NATIONAL_CONCISE_CODE":"CITY/VIL1"},"geometry":{"type":"Point","coordinates":[-79.2533,43.16544]}},{"type":"Feature","properties":{"OGF_ID":210256725,"OFFICIAL_NAME":"Port Hope","NATIONAL_CONCISE_CODE":"TOWN/VIL2"},"geometry":{"type":"Point","coordinates":[-78.3875,44.02838]}},{"type":"Feature","properties":{"OGF_ID":210246003,"OFFICIAL_NAME":"Welland","NATIONAL_CONCISE_CODE":"CITY/VIL1"},"geometry":{"type":"Point","coordinates":[-79.22497,42.99712]}},{"type":"Feature","properties":{"OGF_ID":210245822,"OFFICIAL_NAME":"Pelham","NATIONAL_CONCISE_CODE":"TOWN/VIL2"},"geometry":{"type":"Point","coordinates":[-79.33847,43.04858]}},{"type":"Feature","properties":{"OGF_ID":210205921,"OFFICIAL_NAME":"Burlington","NATIONAL_CONCISE_CODE":"CITY/VIL1"},"geometry":{"type":"Point","coordinates":[-79.81403,43.37006]}},{"type":"Feature","properties":{"OGF_ID":210256676,"OFFICIAL_NAME":"Belleville","NATIONAL_CONCISE_CODE":"CITY/VIL1"},"geometry":{"type":"Point","coordinates":[-77.3697,44.25672]}},{"type":"Feature","properties":{"OGF_ID":210213465,"OFFICIAL_NAME":"Elliot Lake","NATIONAL_CONCISE_CODE":"CITY/VIL1"},"geometry":{"type":"Point","coordinates":[-82.65723,46.38117]}},{"type":"Feature","properties":{"OGF_ID":210246004,"OFFICIAL_NAME":"Deep River","NATIONAL_CONCISE_CODE":"TOWN/VIL2"},"geometry":{"type":"Point","coordinates":[-77.48738,46.10041]}},{"type":"Feature","properties":{"OGF_ID":210256715,"OFFICIAL_NAME":"Norfolk County","NATIONAL_CONCISE_CODE":"TOWN/VIL2"},"geometry":{"type":"Point","coordinates":[-80.4087,42.8034]}},{"type":"Feature","properties":{"OGF_ID":210256716,"OFFICIAL_NAME":"Haldimand County","NATIONAL_CONCISE_CODE":"TOWN/VIL2"},"geometry":{"type":"Point","coordinates":[-79.85341,42.98618]}},{"type":"Feature","properties":{"OGF_ID":210256632,"OFFICIAL_NAME":"St.-Charles","NATIONAL_CONCISE_CODE":"TOWN/VIL2"},"geometry":{"type":"Point","coordinates":[-80.47368,46.35061]}},{"type":"Feature","properties":{"OGF_ID":210243548,"OFFICIAL_NAME":"St. Catharines","NATIONAL_CONCISE_CODE":"CITY/VIL1"},"geometry":{"type":"Point","coordinates":[-79.2533,43.16544]}},{"type":"Feature","properties":{"OGF_ID":210256725,"OFFICIAL_NAME":"Port Hope","NATIONAL_CONCISE_CODE":"TOWN/VIL2"},"geometry":{"type":"Point","coordinates":[-78.3875,44.02838]}},{"type":"Feature","properties":{"OGF_ID":210246003,"OFFICIAL_NAME":"Welland","NATIONAL_CONCISE_CODE":"CITY/VIL1"},"geometry":{"type":"Point","coordinates":[-79.22497,42.99712]}},{"type":"Feature","properties":{"OGF_ID":210245822,"OFFICIAL_NAME":"Pelham","NATIONAL_CONCISE_CODE":"TOWN/VIL2"},"geometry":{"type":"Point","coordinates":[-79.33847,43.04858]}},{"type":"Feature","properties":{"OGF_ID":210205921,"OFFICIAL_NAME":"Burlington","NATIONAL_CONCISE_CODE":"CITY/VIL1"},"geometry":{"type":"Point","coordinates":[-79.81403,43.37006]}},{"type":"Feature","properties":{"OGF_ID":210256676,"OFFICIAL_NAME":"Belleville","NATIONAL_CONCISE_CODE":"CITY/VIL1"},"geometry":{"type":"Point","coordinates":[-77.3697,44.25672]}},{"type":"Feature","properties":{"OGF_ID":210213465,"OFFICIAL_NAME":"Elliot Lake","NATIONAL_CONCISE_CODE":"CITY/VIL1"},"geometry":{"type":"Point","coordinates":[-82.65723,46.38117]}},{"type":"Feature","properties":{"OGF_ID":210246004,"OFFICIAL_NAME":"Deep River","NATIONAL_CONCISE_CODE":"TOWN/VIL2"},"geometry":{"type":"Point","coordinates":[-77.48738,46.10041]}},{"type":"Feature","properties":{"OGF_ID":210256715,"OFFICIAL_NAME":"Norfolk County","NATIONAL_CONCISE_CODE":"TOWN/VIL2"},"geometry":{"type":"Point","coordinates":[-80.4087,42.8034]}},{"type":"Feature","properties":{"OGF_ID":210256716,"OFFICIAL_NAME":"Haldimand County","NATIONAL_CONCISE_CODE":"TOWN/VIL2"},"geometry":{"type":"Point","coordinates":[-79.85341,42.98618]}}]}