{"type":"FeatureCollection","features":[{"type":"Feature","properties":{"OGF_ID":235800333,"EFFECTIVE_DATETIME":"2005-02-28","SYSTEM_DATETIME":"2017-06-06"},"geometry":{"type":"LineString","coordinates":[[-79.45661,44.05782],[-79.45757,44.05821],[-79.4584,44.06053],[-79.45944,44.06133],[-79.46001,44.06387],[-79.4568,44.06935],[-79.45422,44.07272]]}},{"type":"Feature","properties":{"OGF_ID":235800341,"EFFECTIVE_DATETIME":"2005-02-28","SYSTEM_DATETIME":"2017-06-06"},"geometry":{"type":"LineString","coordinates":[[-78.80363,43.86883],[-78.80368,43.86898]]}},{"type":"Feature","properties":{"OGF_ID":235800442,"EFFECTIVE_DATETIME":"2005-02-28","SYSTEM_DATETIME":"2017-06-06"},"geometry":{"type":"MultiLineString","coordinates":[[[-79.42531,44.13301],[-79.42505,44.13447],[-79.42421,44.13573],[-79.42509,44.14005],[-79.42594,44.13997],[-79.42803,44.14132]],[[-79.4313,44.13503],[-79.43031,44.13871],[-79.42961,44.13893],[-79.42878,44.14085],[-79.42803,44.14132]],[[-79.43875,44.13217],[-79.43884,44.13337],[-79.44036,44.13448],[-79.43921,44.13562],[-79.43894,44.13695],[-79.43948,44.13776],[-79.43811,44.13884],[-79.4384,44.14031],[-79.43694,44.14167],[-79.43569,44.14624],[-79.43575,44.14775],[-79.43509,44.14808],[-79.43244,44.14827],[-79.43162,44.14713],[-79.43015,44.1464],[-79.42998,44.14496],[-79.42894,44.14346],[-79.42922,44.14227],[-79.42803,44.14132]]]}},{"type":"Feature","properties":{"OGF_ID":235800443,"EFFECTIVE_DATETIME":"2005-02-28","SYSTEM_DATETIME":"2017-06-06"},"geometry":{"type":"LineString","coordinates":[[-79.43509,44.14808],[-79.43521,44.14844]]}},{"type":"Feature","properties":{"OGF_ID":235800312,"EFFECTIVE_DATETIME":"2005-02-28","SYSTEM_DATETIME":"2017-06-06"},"geometry":{"type":"LineString","coordinates":[[-79.4542,44.07276],[-79.45444,44.07779]]}},{"type":"Feature","properties":{"OGF_ID":235800313,"EFFECTIVE_DATETIME":"2005-02-28","SYSTEM_DATETIME":"2017-06-06"},"geometry":{"type":"LineString","coordinates":[[-79.47063,44.00528],[-79.47021,44.00536]]}},{"type":"Feature","properties":{"OGF_ID":235800314,"EFFECTIVE_DATETIME":"2005-02-28","SYSTEM_DATETIME":"2017-06-06"},"geometry":{"type":"LineString","coordinates":[[-79.42686,44.04726],[-79.42777,44.04725],[-79.42807,44.04827],[-79.42994,44.04972],[-79.43099,44.04925],[-79.43428,44.04952],[-79.43566,44.05052],[-79.43614,44.05146],[-79.43756,44.05142],[-79.43739,44.05275],[-79.43782,44.05351],[-79.43905,44.05335],[-79.43958,44.05198],[-79.44145,44.05239],[-79.44195,44.05126],[-79.44401,44.05015],[-79.44487,44.04993],[-79.44576,44.05046],[-79.44735,44.05046],[-79.44783,44.05082],[-79.44876,44.05062],[-79.44945,44.05135],[-79.45056,44.05174],[-79.45143,44.05504],[-79.45286,44.05666],[-79.45417,44.05672],[-79.45561,44.0578],[-79.45661,44.05782]]}},{"type":"Feature","properties":{"OGF_ID":235800315,"EFFECTIVE_DATETIME":"2005-02-28","SYSTEM_DATETIME":"2017-06-06"},"geometry":{"type":"LineString","coordinates":[[-79.41592,44.04784],[-79.41914,44.0486],[-79.42023,44.04784],[-79.42103,44.04775],[-79.42221,44.04803],[-79.42259,44.04885],[-79.42476,44.04918],[-79.42609,44.04758]]}},{"type":"Feature","properties":{"OGF_ID":235800377,"EFFECTIVE_DATETIME":"2005-02-28","SYSTEM_DATETIME":"2017-06-06"},"geometry":{"type":"LineString","coordinates":[[-79.48372,44.02743],[-79.48104,44.02716],[-79.48018,44.02601],[-79.47906,44.02563],[-79.47942,44.02421],[-79.47912,44.0233],[-79.47672,44.02137],[-79.47631,44.0199]]}},{"type":"Feature","properties":{"OGF_ID":235800378,"EFFECTIVE_DATETIME":"2005-02-28","SYSTEM_DATETIME":"2017-06-06"},"geometry":{"type":"LineString","coordinates":[[-79.47989,43.99231],[-79.47601,43.99548],[-79.47426,43.99843],[-79.4719,43.99898],[-79.47061,43.99988],[-79.47116,44.00281],[-79.47021,44.00536]]}},{"type":"Feature","properties":{"OGF_ID":235800379,"EFFECTIVE_DATETIME":"2005-02-28","SYSTEM_DATETIME":"2017-06-06"},"geometry":{"type":"LineString","coordinates":[[-79.44319,43.99783],[-79.44396,43.99828],[-79.44383,43.99862],[-79.44547,43.99843],[-79.44728,43.99902],[-79.44752,44.00029],[-79.44854,44.00052],[-79.44783,44.00179],[-79.4485,44.0041],[-79.44914,44.00421],[-79.44924,44.00487],[-79.45087,44.00494],[-79.45172,44.0045],[-79.45181,44.00485],[-79.45246,44.00422],[-79.45296,44.00433],[-79.45269,44.00521],[-79.45332,44.00542],[-79.453,44.006],[-79.4524,44.00609],[-79.45268,44.00696],[-79.45417,44.00761],[-79.45651,44.0074],[-79.45711,44.00874],[-79.45801,44.00877],[-79.45823,44.00924],[-79.45888,44.00935],[-79.45743,44.01076],[-79.45731,44.01154],[-79.45592,44.01181],[-79.4554,44.01244],[-79.4563,44.01255],[-79.45638,44.01412],[-79.4583,44.01482],[-79.45838,44.01513],[-79.45905,44.01487],[-79.45957,44.01533],[-79.46033,44.01497],[-79.46091,44.01546],[-79.46109,44.01505],[-79.46192,44.01511],[-79.46164,44.01634],[-79.46085,44.01651],[-79.46007,44.01618],[-79.45976,44.01682],[-79.45997,44.01744],[-79.46055,44.01739],[-79.46035,44.01791],[-79.46138,44.01826],[-79.4615,44.01919],[-79.46053,44.01935],[-79.46072,44.0197],[-79.45998,44.02023],[-79.46,44.02075],[-79.46139,44.02184],[-79.4629,44.02212],[-79.46271,44.02342]]}},{"type":"Feature","properties":{"OGF_ID":235800316,"EFFECTIVE_DATETIME":"2005-02-28","SYSTEM_DATETIME":"2017-06-06"},"geometry":{"type":"LineString","coordinates":[[-79.47279,44.01499],[-79.47223,44.01547],[-79.47246,44.0182],[-79.47578,44.01761],[-79.47715,44.01935],[-79.47631,44.0199]]}},{"type":"Feature","properties":{"OGF_ID":235800317,"EFFECTIVE_DATETIME":"2005-02-28","SYSTEM_DATETIME":"2017-06-06"},"geometry":{"type":"LineString","coordinates":[[-79.47076,44.01071],[-79.47082,44.01146],[-79.47165,44.01166],[-79.47285,44.01277],[-79.47249,44.01329],[-79.47277,44.01484]]}},{"type":"Feature","properties":{"OGF_ID":235800318,"EFFECTIVE_DATETIME":"2005-02-28","SYSTEM_DATETIME":"2017-06-06"},"geometry":{"type":"LineString","coordinates":[[-79.45606,44.08553],[-79.45634,44.08796],[-79.45704,44.08876],[-79.45869,44.08941],[-79.46744,44.08928],[-79.47064,44.0906],[-79.48186,44.09319],[-79.48709,44.09429],[-79.48822,44.09376],[-79.48864,44.09503],[-79.48942,44.09473],[-79.49155,44.09516],[-79.49401,44.09662],[-79.49647,44.10095],[-79.49889,44.10218],[-79.49971,44.10316],[-79.49942,44.10342],[-79.50012,44.10381],[-79.49973,44.10426],[-79.50029,44.10456],[-79.49993,44.10512],[-79.4992,44.1052],[-79.49776,44.10716],[-79.4964,44.10753],[-79.49565,44.10821],[-79.49648,44.10917],[-79.49582,44.11003],[-79.49586,44.11119],[-79.49633,44.11148],[-79.49433,44.11172],[-79.49541,44.11392],[-79.49477,44.11477],[-79.49685,44.11518],[-79.50028,44.11434],[-79.50157,44.11505],[-79.5016,44.11691],[-79.50388,44.11659],[-79.50383,44.11857],[-79.50141,44.11973],[-79.50196,44.12166],[-79.50138,44.12283],[-79.50205,44.12322],[-79.50375,44.12244],[-79.50472,44.12274],[-79.5041,44.12744],[-79.5051,44.12838],[-79.50509,44.13155],[-79.50541,44.13209],[-79.50763,44.13262],[-79.50726,44.13377]]}},{"type":"Feature","properties":{"OGF_ID":235800319,"EFFECTIVE_DATETIME":"2005-02-28","SYSTEM_DATETIME":"2017-06-06"},"geometry":{"type":"LineString","coordinates":[[-79.45445,44.07783],[-79.45606,44.08547]]}},{"type":"Feature","properties":{"OGF_ID":235800330,"EFFECTIVE_DATETIME":"2005-02-28","SYSTEM_DATETIME":"2017-06-06"},"geometry":{"type":"LineString","coordinates":[[-79.47631,44.0199],[-79.47417,44.02115],[-79.47337,44.02207],[-79.47112,44.02227],[-79.46995,44.02198],[-79.46913,44.02296],[-79.4683,44.02285],[-79.46764,44.02418],[-79.46609,44.0244],[-79.46603,44.02497],[-79.46661,44.02502],[-79.46667,44.02537],[-79.46609,44.02667],[-79.46492,44.02649],[-79.46413,44.02567],[-79.46457,44.02363],[-79.46358,44.02328],[-79.46271,44.02342]]}},{"type":"Feature","properties":{"OGF_ID":235800331,"EFFECTIVE_DATETIME":"2005-02-28","SYSTEM_DATETIME":"2017-06-06"},"geometry":{"type":"LineString","coordinates":[[-79.47047,44.01008],[-79.46943,44.01001],[-79.4687,44.00876],[-79.47119,44.00772],[-79.47132,44.00706],[-79.47021,44.00536]]}},{"type":"Feature","properties":{"OGF_ID":235800332,"EFFECTIVE_DATETIME":"2005-02-28","SYSTEM_DATETIME":"2017-06-06"},"geometry":{"type":"LineString","coordinates":[[-79.46271,44.02342],[-79.46182,44.02356],[-79.45816,44.02682],[-79.45869,44.02719],[-79.45748,44.02862],[-79.45801,44.02903],[-79.45734,44.02921],[-79.45764,44.03049],[-79.45895,44.0303],[-79.45918,44.03075],[-79.46039,44.03073],[-79.46139,44.03021],[-79.46281,44.03032],[-79.46451,44.03067],[-79.46426,44.03123],[-79.46541,44.03156],[-79.46544,44.03244],[-79.46598,44.03277],[-79.4641,44.03429],[-79.46329,44.03499],[-79.46339,44.03649],[-79.46258,44.03656],[-79.46203,44.03737],[-79.46124,44.03753],[-79.46065,44.03684],[-79.45932,44.03724],[-79.45894,44.03823],[-79.4596,44.03848],[-79.45902,44.03899],[-79.45987,44.04217],[-79.45914,44.04295],[-79.45763,44.04339],[-79.45763,44.04479],[-79.45613,44.04564],[-79.4586,44.04789],[-79.4565,44.04886],[-79.4548,44.05047],[-79.45602,44.05254],[-79.45483,44.05359],[-79.4567,44.05627],[-79.45661,44.05782]]}},{"type":"Feature","properties":{"OGF_ID":235800445,"EFFECTIVE_DATETIME":"2005-02-28","SYSTEM_DATETIME":"2017-06-06"},"geometry":{"type":"LineString","coordinates":[[-79.68876,44.00875],[-79.68895,44.00974],[-79.68629,44.01064],[-79.68634,44.01227],[-79.6813,44.01287],[-79.67918,44.01385],[-79.67311,44.01537],[-79.67017,44.01573],[-79.66913,44.01664],[-79.66762,44.01923],[-79.6582,44.02037]]}},{"type":"Feature","properties":{"OGF_ID":235800447,"EFFECTIVE_DATETIME":"2005-02-28","SYSTEM_DATETIME":"2017-06-06"},"geometry":{"type":"LineString","coordinates":[[-79.40885,44.02635],[-79.40967,44.02633],[-79.41031,44.02723],[-79.4122,44.02703],[-79.41288,44.02858],[-79.41816,44.02765],[-79.41879,44.02737],[-79.41884,44.02649],[-79.41986,44.02616],[-79.4211,44.02744],[-79.42422,44.02819],[-79.42672,44.02777],[-79.42739,44.02808],[-79.42891,44.02799],[-79.43003,44.02834],[-79.43128,44.02946],[-79.4353,44.02897],[-79.43738,44.03068],[-79.4388,44.03131],[-79.43918,44.03207],[-79.44202,44.03269],[-79.44367,44.03378],[-79.44524,44.03397],[-79.44566,44.03247],[-79.45065,44.03144],[-79.4508,44.03104],[-79.45228,44.0313],[-79.453,44.03186],[-79.45334,44.03137],[-79.45401,44.0314],[-79.45449,44.0319],[-79.45577,44.03232],[-79.45613,44.03212],[-79.45927,44.03333],[-79.45968,44.03297],[-79.46094,44.033],[-79.46247,44.03406],[-79.46282,44.03386],[-79.4641,44.03429]]}},{"type":"Feature","properties":{"OGF_ID":235800448,"EFFECTIVE_DATETIME":"2005-02-28","SYSTEM_DATETIME":"2017-06-06"},"geometry":{"type":"LineString","coordinates":[[-79.4309,44.01213],[-79.43206,44.01405],[-79.43166,44.0157],[-79.43252,44.0183],[-79.43203,44.01888],[-79.43558,44.01849],[-79.43676,44.0206],[-79.43786,44.0211],[-79.4376,44.02378],[-79.43806,44.02509],[-79.43934,44.02519],[-79.44049,44.02413],[-79.44182,44.02435],[-79.44325,44.02529],[-79.4457,44.02471],[-79.4467,44.0268],[-79.44884,44.02634],[-79.44917,44.02716],[-79.45001,44.02737],[-79.45169,44.02624],[-79.45219,44.02483],[-79.45338,44.02457],[-79.45522,44.02735],[-79.4565,44.02732],[-79.45657,44.02768],[-79.45721,44.02698],[-79.45816,44.02682]]}}]}