{"type":"FeatureCollection","features":[{"type":"Feature","properties":{"OGF_ID":1,"CROP_LAND_DESIGNATION":"Holland Marsh","EFFECTIVE_DATETIME":"2017-05-18","SYSTEM_DATETIME":"2023-12-14"},"geometry":{"type":"MultiPolygon","coordinates":[[[[-79.54879,44.11155],[-79.55016,44.11283],[-79.55689,44.11414],[-79.55908,44.1134],[-79.55955,44.11191],[-79.55928,44.1106],[-79.56205,44.1045],[-79.56085,44.09949],[-79.56003,44.09905],[-79.55955,44.09815],[-79.55999,44.09605],[-79.55942,44.09374],[-79.5604,44.09153],[-79.56648,44.08932],[-79.56981,44.08741],[-79.57315,44.0866],[-79.57328,44.08714],[-79.57692,44.08654],[-79.57912,44.08543],[-79.58149,44.08222],[-79.58613,44.07981],[-79.58692,44.07904],[-79.58887,44.07421],[-79.59157,44.06994],[-79.59262,44.06667],[-79.59282,44.064],[-79.59662,44.06263],[-79.60043,44.05872],[-79.61188,44.05428],[-79.62091,44.04874],[-79.63412,44.03771],[-79.64604,44.03072],[-79.64957,44.02647],[-79.64972,44.0219],[-79.65039,44.02052],[-79.6518,44.02009],[-79.65824,44.02024],[-79.65782,44.01861],[-79.65445,44.01907],[-79.65166,44.01814],[-79.65043,44.01734],[-79.64616,44.0183],[-79.64314,44.01831],[-79.60701,44.02636],[-79.60494,44.02851],[-79.60154,44.03084],[-79.59922,44.03301],[-79.59235,44.03689],[-79.5889,44.03786],[-79.58418,44.03993],[-79.58537,44.04422],[-79.58529,44.04538],[-79.58443,44.04639],[-79.5829,44.04698],[-79.5748,44.04837],[-79.56938,44.05064],[-79.56657,44.05438],[-79.56451,44.05557],[-79.56105,44.05883],[-79.55641,44.06174],[-79.55245,44.06597],[-79.54638,44.06987],[-79.54341,44.07365],[-79.54076,44.08009],[-79.539,44.08308],[-79.53756,44.08451],[-79.53614,44.08487],[-79.53591,44.08761],[-79.53707,44.09379],[-79.53928,44.09445],[-79.54142,44.09591],[-79.54764,44.10251],[-79.54678,44.10558],[-79.54635,44.11025],[-79.54653,44.1116],[-79.54754,44.11204],[-79.54857,44.11135],[-79.54879,44.11155]]],[[[-79.52649,44.21306],[-79.52751,44.2138],[-79.52882,44.21589],[-79.52897,44.21827],[-79.52999,44.21735],[-79.5309,44.21552],[-79.53172,44.21215],[-79.53144,44.20768],[-79.5334,44.20378],[-79.53395,44.20099],[-79.53341,44.19935],[-79.52964,44.19453],[-79.5289,44.19185],[-79.52944,44.18894],[-79.53316,44.18034],[-79.53465,44.17456],[-79.53435,44.17181],[-79.53116,44.16552],[-79.5312,44.16376],[-79.5321,44.16232],[-79.53938,44.15791],[-79.54091,44.15563],[-79.54162,44.15316],[-79.54205,44.14846],[-79.54583,44.14418],[-79.54719,44.14137],[-79.54787,44.13549],[-79.54668,44.12946],[-79.54719,44.12719],[-79.55251,44.11727],[-79.55407,44.11603],[-79.54583,44.1138],[-79.54559,44.11728],[-79.54321,44.11786],[-79.54234,44.11883],[-79.5409,44.1254],[-79.5386,44.12944],[-79.53621,44.13243],[-79.53374,44.13458],[-79.52897,44.13726],[-79.52692,44.13785],[-79.52376,44.13797],[-79.52302,44.13841],[-79.52174,44.14122],[-79.52295,44.14363],[-79.52269,44.14555],[-79.5232,44.14774],[-79.52168,44.14989],[-79.52037,44.15062],[-79.52109,44.15179],[-79.51982,44.15521],[-79.51892,44.15556],[-79.51766,44.1552],[-79.51845,44.1564],[-79.52088,44.15782],[-79.52082,44.15938],[-79.51948,44.16133],[-79.51624,44.16435],[-79.5153,44.16603],[-79.51448,44.16514],[-79.51465,44.16426],[-79.51949,44.1589],[-79.51918,44.15825],[-79.51659,44.15712],[-79.51582,44.15455],[-79.51692,44.1533],[-79.5187,44.15283],[-79.51915,44.15206],[-79.51819,44.15106],[-79.51821,44.15032],[-79.52135,44.14805],[-79.52146,44.14721],[-79.52071,44.14547],[-79.52099,44.1433],[-79.52052,44.14247],[-79.51906,44.14468],[-79.51931,44.14729],[-79.5157,44.14822],[-79.51374,44.15035],[-79.51093,44.15058],[-79.50937,44.15117],[-79.50753,44.15367],[-79.50537,44.15495],[-79.50421,44.15729],[-79.50337,44.15756],[-79.50271,44.15698],[-79.50149,44.15386],[-79.49955,44.15245],[-79.49801,44.14589],[-79.49635,44.14329],[-79.49474,44.14218],[-79.49142,44.14192],[-79.48975,44.14012],[-79.48804,44.13991],[-79.48715,44.14086],[-79.48829,44.14204],[-79.48768,44.14315],[-79.48801,44.14547],[-79.4912,44.14668],[-79.49158,44.14789],[-79.49106,44.14908],[-79.48991,44.14989],[-79.48609,44.15051],[-79.48464,44.15117],[-79.48164,44.15592],[-79.4802,44.1557],[-79.47803,44.15452],[-79.47636,44.15531],[-79.47833,44.15825],[-79.47808,44.16323],[-79.47666,44.16884],[-79.47833,44.17242],[-79.47873,44.17441],[-79.47884,44.18531],[-79.47966,44.18994],[-79.48406,44.18894],[-79.48595,44.19523],[-79.48791,44.1938],[-79.49046,44.19295],[-79.49037,44.1922],[-79.49074,44.19295],[-79.49368,44.19292],[-79.49631,44.19366],[-79.49781,44.19353],[-79.49787,44.19318],[-79.49745,44.1934],[-79.49785,44.19276],[-79.4982,44.19344],[-79.49873,44.19347],[-79.49787,44.19404],[-79.49698,44.19408],[-79.49701,44.19458],[-79.49846,44.1954],[-79.49909,44.19538],[-79.49996,44.19516],[-79.50014,44.19422],[-79.50026,44.19512],[-79.49942,44.19583],[-79.49867,44.19587],[-79.49868,44.19643],[-79.50091,44.19746],[-79.5065,44.20134],[-79.51218,44.20346],[-79.5162,44.20156],[-79.51621,44.20316],[-79.52009,44.20508],[-79.52167,44.20696],[-79.52197,44.20833],[-79.52237,44.20866],[-79.52297,44.20837],[-79.52218,44.20883],[-79.52341,44.20913],[-79.52297,44.20932],[-79.52234,44.20919],[-79.52074,44.20793],[-79.51994,44.20787],[-79.52071,44.20944],[-79.52339,44.21081],[-79.52428,44.21189],[-79.52649,44.21306]]],[[[-79.63201,44.00592],[-79.63114,44.00596],[-79.63394,44.01628],[-79.63384,44.01823],[-79.63223,44.01982],[-79.6326,44.02003],[-79.63749,44.01887],[-79.64102,44.01506],[-79.64472,44.00853],[-79.64514,44.00359],[-79.64462,44.00266],[-79.64181,44.00214],[-79.63972,44.0022],[-79.63786,44.00287],[-79.63553,44.00546],[-79.63443,44.00586],[-79.63201,44.00592]]],[[[-79.62169,44.00841],[-79.62046,44.01167],[-79.61853,44.01338],[-79.62157,44.01729],[-79.62345,44.02192],[-79.6294,44.0207],[-79.63073,44.02013],[-79.63229,44.01766],[-79.63257,44.01443],[-79.63216,44.01285],[-79.63109,44.01189],[-79.62424,44.00959],[-79.62195,44.00808],[-79.62169,44.00841]]],[[[-79.61401,44.01572],[-79.61117,44.02155],[-79.60787,44.02537],[-79.62176,44.02214],[-79.62065,44.01747],[-79.61863,44.01506],[-79.61545,44.01278],[-79.61401,44.01572]]],[[[-79.6411,44.01696],[-79.64057,44.01822],[-79.64786,44.01674],[-79.65035,44.01671],[-79.65122,44.01718],[-79.6505,44.01661],[-79.65131,44.01508],[-79.65232,44.01468],[-79.65224,44.01411],[-79.65087,44.01191],[-79.64978,44.00852],[-79.64816,44.00612],[-79.64629,44.00842],[-79.64392,44.01349],[-79.6411,44.01696]]]]}},{"type":"Feature","properties":{"OGF_ID":2,"CROP_LAND_DESIGNATION":"Niagara Peninsula Tender Fruit and Grape Area","EFFECTIVE_DATETIME":"2023-12-06","SYSTEM_DATETIME":"2023-12-14"},"geometry":{"type":"MultiPolygon","coordinates":[[[[-79.09599,43.26033],[-79.10136,43.25889],[-79.11524,43.25638],[-79.11887,43.25635],[-79.12532,43.25692],[-79.12623,43.25725],[-79.12631,43.25789],[-79.12747,43.25863],[-79.13384,43.25724],[-79.1358,43.25605],[-79.13753,43.25603],[-79.13865,43.25561],[-79.14594,43.25207],[-79.15159,43.24874],[-79.15219,43.24783],[-79.15451,43.24707],[-79.15508,43.24651],[-79.15998,43.24432],[-79.16128,43.24408],[-79.16185,43.24319],[-79.162,43.24354],[-79.16252,43.24347],[-79.1667,43.24093],[-79.17266,43.23913],[-79.1733,43.23839],[-79.17746,43.23696],[-79.18171,43.23447],[-79.18776,43.2321],[-79.18756,43.23145],[-79.18815,43.23099],[-79.19228,43.23003],[-79.19335,43.22902],[-79.19836,43.22821],[-79.20235,43.22713],[-79.2016,43.21339],[-79.20845,43.21074],[-79.20818,43.21002],[-79.2092,43.20917],[-79.2085,43.20747],[-79.2076,43.20709],[-79.20748,43.20655],[-79.20814,43.20621],[-79.20626,43.2016],[-79.20209,43.19517],[-79.20198,43.19477],[-79.20329,43.19429],[-79.19821,43.18523],[-79.19588,43.16821],[-79.19634,43.16716],[-79.19544,43.16579],[-79.19538,43.16113],[-79.19469,43.1588],[-79.19519,43.16315],[-79.19389,43.15613],[-79.19304,43.14736],[-79.19369,43.15156],[-79.19382,43.15139],[-79.19361,43.14869],[-79.19293,43.14535],[-79.1912,43.14537],[-79.1782,43.14982],[-79.1781,43.14708],[-79.15537,43.15378],[-79.15134,43.15223],[-79.14916,43.15187],[-79.13404,43.15313],[-79.13408,43.15412],[-79.1213,43.15415],[-79.12155,43.15779],[-79.11256,43.15822],[-79.11278,43.16201],[-79.10876,43.16211],[-79.10887,43.1658],[-79.06965,43.16631],[-79.0696,43.16406],[-79.06403,43.16557],[-79.06415,43.1732],[-79.05713,43.1733],[-79.05599,43.17913],[-79.05758,43.1827],[-79.05769,43.1853],[-79.05357,43.19336],[-79.05227,43.19734],[-79.05213,43.19976],[-79.05285,43.20184],[-79.05879,43.20665],[-79.05987,43.20859],[-79.06029,43.21061],[-79.05989,43.2152],[-79.05733,43.22194],[-79.05701,43.22415],[-79.05888,43.22961],[-79.05994,43.23545],[-79.05949,43.24039],[-79.05803,43.24774],[-79.05856,43.25227],[-79.05887,43.25263],[-79.06224,43.25208],[-79.0655,43.25373],[-79.06946,43.24966],[-79.07527,43.25017],[-79.07732,43.24803],[-79.06945,43.24435],[-79.07394,43.23953],[-79.07533,43.23924],[-79.07648,43.238],[-79.0805,43.238],[-79.08044,43.23711],[-79.08127,43.2371],[-79.0851,43.24612],[-79.0915,43.24612],[-79.09607,43.24263],[-79.10004,43.25128],[-79.10123,43.2517],[-79.1013,43.25261],[-79.09211,43.25444],[-79.09599,43.26033]],[[-79.1257,43.23348],[-79.12356,43.23354],[-79.12341,43.22819],[-79.11787,43.22836],[-79.11783,43.22736],[-79.11625,43.22739],[-79.11528,43.22568],[-79.11148,43.22578],[-79.11109,43.21821],[-79.1159,43.21805],[-79.11587,43.21738],[-79.12061,43.21723],[-79.12013,43.21646],[-79.12406,43.21642],[-79.12396,43.21418],[-79.13091,43.21408],[-79.13245,43.21286],[-79.13241,43.21168],[-79.13408,43.21167],[-79.13542,43.21271],[-79.13435,43.21352],[-79.13576,43.21421],[-79.13605,43.22527],[-79.12544,43.22548],[-79.1257,43.23348]],[[-79.15757,43.16414],[-79.15259,43.16484],[-79.1518,43.16408],[-79.14892,43.16374],[-79.14665,43.16272],[-79.14614,43.16117],[-79.14482,43.16071],[-79.14439,43.15315],[-79.15264,43.15295],[-79.15551,43.15389],[-79.17806,43.1472],[-79.17872,43.16245],[-79.17362,43.16052],[-79.17376,43.16412],[-79.16241,43.1638],[-79.15757,43.16414]]],[[[-79.25075,43.10504],[-79.2521,43.10616],[-79.25535,43.10619],[-79.25532,43.10513],[-79.25744,43.10503],[-79.25741,43.10417],[-79.25853,43.10412],[-79.25855,43.1045],[-79.2595,43.10446],[-79.25967,43.1052],[-79.26224,43.10606],[-79.26133,43.07821],[-79.26639,43.07795],[-79.26556,43.05923],[-79.26588,43.05924],[-79.26578,43.05508],[-79.26785,43.05427],[-79.26779,43.05218],[-79.27022,43.05113],[-79.26991,43.03398],[-79.26742,43.034],[-79.26757,43.03813],[-79.26687,43.03814],[-79.26688,43.03885],[-79.26505,43.03878],[-79.2651,43.04066],[-79.25862,43.04047],[-79.25867,43.04221],[-79.24976,43.04209],[-79.25058,43.0638],[-79.24588,43.06953],[-79.23501,43.06982],[-79.23502,43.07489],[-79.23569,43.07916],[-79.214,43.07977],[-79.21451,43.08063],[-79.21729,43.08131],[-79.21806,43.08196],[-79.21774,43.08415],[-79.21823,43.08777],[-79.22076,43.09236],[-79.22288,43.09512],[-79.2283,43.09661],[-79.22959,43.09901],[-79.23504,43.10061],[-79.23778,43.10225],[-79.23949,43.1021],[-79.24174,43.10328],[-79.24732,43.10356],[-79.25075,43.10504]]],[[[-79.36786,43.1244],[-79.38731,43.12406],[-79.39108,43.12299],[-79.38926,43.09592],[-79.38705,43.01475],[-79.36683,43.0151],[-79.36684,43.0162],[-79.36638,43.01643],[-79.36409,43.01645],[-79.36414,43.02207],[-79.3659,43.02203],[-79.36589,43.02319],[-79.36659,43.02319],[-79.36663,43.02418],[-79.36576,43.0242],[-79.36574,43.02541],[-79.36249,43.02542],[-79.36263,43.03357],[-79.34064,43.03362],[-79.34068,43.02337],[-79.36072,43.02304],[-79.3609,43.02005],[-79.36235,43.02003],[-79.3624,43.01876],[-79.36108,43.01877],[-79.36076,43.0176],[-79.35866,43.01523],[-79.31099,43.01594],[-79.31097,43.02505],[-79.3008,43.02516],[-79.30076,43.04143],[-79.30388,43.04141],[-79.3039,43.04263],[-79.30286,43.04353],[-79.30071,43.04358],[-79.30101,43.05267],[-79.34063,43.05227],[-79.3408,43.06119],[-79.33613,43.06122],[-79.33647,43.07045],[-79.3316,43.07057],[-79.33246,43.08918],[-79.33198,43.092],[-79.33181,43.0922],[-79.32255,43.08963],[-79.32291,43.09902],[-79.32986,43.09879],[-79.33299,43.10531],[-79.33222,43.10752],[-79.34185,43.10718],[-79.34712,43.1066],[-79.34748,43.11512],[-79.34583,43.11615],[-79.36752,43.11516],[-79.36786,43.1244]]],[[[-79.46987,43.15281],[-79.47015,43.15735],[-79.46468,43.15764],[-79.46476,43.1591],[-79.4711,43.15883],[-79.4706,43.15277],[-79.46987,43.15281]]],[[[-79.44692,43.19839],[-79.45074,43.1982],[-79.45924,43.19692],[-79.46195,43.19554],[-79.46539,43.19505],[-79.4671,43.19535],[-79.46754,43.19513],[-79.46892,43.19562],[-79.46923,43.19536],[-79.47016,43.19567],[-79.47225,43.19551],[-79.47765,43.19651],[-79.48362,43.19559],[-79.48563,43.19473],[-79.48726,43.19471],[-79.48787,43.19433],[-79.4915,43.19445],[-79.50098,43.19659],[-79.51313,43.19524],[-79.51297,43.18894],[-79.52082,43.18897],[-79.52143,43.18862],[-79.51297,43.18699],[-79.51294,43.1831],[-79.50852,43.18072],[-79.50291,43.17477],[-79.48928,43.17006],[-79.48918,43.17089],[-79.48786,43.17094],[-79.48786,43.17258],[-79.48704,43.1726],[-79.48704,43.17351],[-79.48175,43.17321],[-79.48186,43.18223],[-79.48294,43.18236],[-79.48333,43.18502],[-79.48275,43.18612],[-79.48265,43.18864],[-79.48199,43.18968],[-79.48018,43.18978],[-79.47825,43.19148],[-79.47496,43.19161],[-79.47157,43.18947],[-79.47157,43.18859],[-79.46036,43.1881],[-79.46016,43.18514],[-79.46151,43.18509],[-79.46123,43.1808],[-79.46642,43.1806],[-79.46492,43.16217],[-79.45637,43.15957],[-79.44721,43.15795],[-79.43571,43.15893],[-79.41806,43.15763],[-79.41198,43.15776],[-79.40381,43.15453],[-79.40384,43.15495],[-79.39869,43.1552],[-79.39897,43.16242],[-79.39356,43.16273],[-79.39343,43.16067],[-79.38815,43.16119],[-79.38786,43.15576],[-79.38691,43.15578],[-79.38648,43.14895],[-79.38088,43.1478],[-79.3804,43.149],[-79.38038,43.15022],[-79.3812,43.15134],[-79.38076,43.15259],[-79.378,43.15447],[-79.37729,43.15432],[-79.37614,43.15313],[-79.37593,43.15208],[-79.37508,43.15212],[-79.3738,43.15415],[-79.37524,43.15429],[-79.37547,43.15469],[-79.37501,43.15581],[-79.37558,43.1579],[-79.37618,43.1581],[-79.37632,43.16102],[-79.37298,43.16306],[-79.37194,43.16487],[-79.37308,43.16618],[-79.37228,43.16811],[-79.37311,43.16918],[-79.37323,43.17122],[-79.37468,43.17264],[-79.37479,43.17476],[-79.36923,43.1734],[-79.36964,43.17217],[-79.3682,43.17045],[-79.36781,43.16813],[-79.36648,43.16722],[-79.36607,43.16577],[-79.35948,43.16492],[-79.35924,43.16112],[-79.36942,43.16074],[-79.37007,43.15984],[-79.36878,43.15912],[-79.37041,43.15918],[-79.37131,43.15707],[-79.3698,43.15656],[-79.36896,43.1557],[-79.36918,43.15267],[-79.37006,43.15263],[-79.37088,43.15202],[-79.37021,43.15082],[-79.36822,43.15084],[-79.36791,43.14568],[-79.36649,43.1452],[-79.36402,43.1434],[-79.36397,43.1427],[-79.34721,43.13859],[-79.33985,43.13769],[-79.33645,43.13762],[-79.33205,43.13646],[-79.32994,43.13754],[-79.32232,43.13681],[-79.31446,43.13739],[-79.31141,43.13958],[-79.30909,43.13883],[-79.30181,43.13973],[-79.30064,43.11776],[-79.28445,43.1181],[-79.27491,43.118],[-79.27489,43.11747],[-79.27392,43.11777],[-79.27161,43.12199],[-79.27297,43.13877],[-79.27274,43.14278],[-79.27589,43.14236],[-79.27617,43.15063],[-79.28693,43.15235],[-79.28704,43.15499],[-79.27634,43.15537],[-79.2764,43.15698],[-79.27988,43.15844],[-79.28138,43.16023],[-79.2818,43.16142],[-79.28177,43.1669],[-79.28441,43.17077],[-79.28491,43.17248],[-79.28519,43.1775],[-79.28001,43.17708],[-79.27951,43.17839],[-79.27983,43.17955],[-79.27912,43.18092],[-79.27971,43.1814],[-79.27971,43.18208],[-79.28163,43.1833],[-79.28193,43.18398],[-79.28434,43.18504],[-79.28406,43.18615],[-79.28549,43.18721],[-79.28676,43.19066],[-79.28846,43.19021],[-79.28879,43.19647],[-79.2917,43.1956],[-79.29258,43.19571],[-79.29481,43.1943],[-79.29957,43.19217],[-79.30525,43.18841],[-79.31612,43.18405],[-79.32538,43.18174],[-79.33219,43.18091],[-79.33906,43.18071],[-79.33905,43.18024],[-79.33946,43.1808],[-79.35076,43.1809],[-79.35937,43.18184],[-79.36402,43.18279],[-79.36413,43.1831],[-79.36418,43.18286],[-79.36514,43.18296],[-79.36496,43.18356],[-79.36654,43.18406],[-79.36682,43.18352],[-79.36822,43.18377],[-79.36811,43.18412],[-79.37097,43.18453],[-79.37274,43.18518],[-79.37294,43.18565],[-79.37341,43.1847],[-79.37391,43.18547],[-79.37905,43.18731],[-79.37886,43.18659],[-79.38364,43.18703],[-79.39071,43.18691],[-79.39367,43.18834],[-79.39496,43.18834],[-79.39506,43.19431],[-79.3985,43.1956],[-79.39959,43.19551],[-79.4057,43.19739],[-79.41369,43.19831],[-79.42664,43.19773],[-79.43303,43.19794],[-79.43538,43.19764],[-79.43854,43.1982],[-79.44065,43.19761],[-79.4438,43.19757],[-79.44692,43.19839]]],[[[-79.72804,43.2046],[-79.74472,43.20863],[-79.74673,43.20387],[-79.76174,43.20795],[-79.76902,43.19052],[-79.73653,43.18238],[-79.71584,43.17677],[-79.65057,43.16165],[-79.64985,43.16326],[-79.5962,43.15144],[-79.58812,43.16871],[-79.54999,43.16051],[-79.55338,43.15161],[-79.52463,43.14511],[-79.5357,43.11867],[-79.51421,43.11363],[-79.51194,43.11354],[-79.51135,43.11375],[-79.51165,43.12412],[-79.50608,43.12375],[-79.4739,43.12466],[-79.46264,43.1255],[-79.45346,43.12519],[-79.44339,43.12591],[-79.40698,43.12677],[-79.40747,43.1359],[-79.423,43.13548],[-79.42292,43.13357],[-79.4249,43.13351],[-79.42548,43.13492],[-79.42886,43.13479],[-79.42943,43.1335],[-79.431,43.13344],[-79.43056,43.13225],[-79.43382,43.13178],[-79.43379,43.13405],[-79.43866,43.13426],[-79.43879,43.13509],[-79.45391,43.13447],[-79.46005,43.13478],[-79.47426,43.13413],[-79.47938,43.13734],[-79.48476,43.13907],[-79.48896,43.14022],[-79.50192,43.14256],[-79.50205,43.14674],[-79.50579,43.15198],[-79.51263,43.15203],[-79.54006,43.15837],[-79.53442,43.17152],[-79.5381,43.17245],[-79.60762,43.18764],[-79.61211,43.18771],[-79.62165,43.18988],[-79.63992,43.18993],[-79.66593,43.19585],[-79.67698,43.19776],[-79.67881,43.19339],[-79.70876,43.19975],[-79.72804,43.2046]]],[[[-79.60932,43.2063],[-79.62387,43.20953],[-79.62543,43.20598],[-79.62371,43.20587],[-79.61529,43.20392],[-79.60913,43.20046],[-79.60406,43.19601],[-79.59822,43.19487],[-79.5951,43.20206],[-79.59506,43.20343],[-79.60932,43.2063]]],[[[-79.63833,43.21335],[-79.63925,43.2117],[-79.64164,43.21226],[-79.64206,43.21126],[-79.64122,43.21107],[-79.64169,43.20992],[-79.64254,43.2101],[-79.64377,43.20711],[-79.63904,43.20728],[-79.63117,43.20618],[-79.62896,43.21107],[-79.63833,43.21335]]],[[[-79.67413,43.21605],[-79.67824,43.21711],[-79.67892,43.21549],[-79.68039,43.21587],[-79.68264,43.21049],[-79.67423,43.20737],[-79.67311,43.20753],[-79.66984,43.2152],[-79.67301,43.21592],[-79.67335,43.21511],[-79.67443,43.21535],[-79.67413,43.21605]]],[[[-79.61839,43.22594],[-79.61985,43.22668],[-79.62126,43.22552],[-79.62229,43.22575],[-79.62352,43.2229],[-79.61872,43.22124],[-79.62143,43.2151],[-79.60208,43.21081],[-79.6011,43.21326],[-79.60282,43.21382],[-79.61538,43.2221],[-79.61876,43.22371],[-79.61942,43.22508],[-79.61917,43.22556],[-79.61833,43.22557],[-79.61797,43.22601],[-79.61839,43.22594]]],[[[-79.08524,43.26236],[-79.0859,43.26229],[-79.07696,43.25784],[-79.07417,43.2608],[-79.07682,43.26219],[-79.08524,43.26236]]]]}},{"type":"Feature","properties":{"OGF_ID":3,"CROP_LAND_DESIGNATION":"Holland Marsh","EFFECTIVE_DATETIME":"2017-05-18","SYSTEM_DATETIME":"2023-12-14"},"geometry":{"type":"Polygon","coordinates":[[[-79.54605,44.11085],[-79.546,44.11117],[-79.54641,44.11071],[-79.54605,44.11085]]]}},{"type":"Feature","properties":{"OGF_ID":4,"CROP_LAND_DESIGNATION":"Holland Marsh","EFFECTIVE_DATETIME":"2017-05-18","SYSTEM_DATETIME":"2023-12-14"},"geometry":{"type":"Polygon","coordinates":[[[-79.546,44.11121],[-79.546,44.1114],[-79.54591,44.11277],[-79.54606,44.11196],[-79.546,44.11121]]]}}]}