{"type":"FeatureCollection","features":[{"type":"Feature","properties":{"OGF_ID":2,"SETTLEMENT_NAME":"SUNDERLAND","EFFECTIVE_DATETIME":"2017-05-18","SYSTEM_DATETIME":"2023-12-14"},"geometry":{"type":"Polygon","coordinates":[[[-79.06481,44.25308],[-79.06327,44.25529],[-79.06262,44.26367],[-79.06194,44.26384],[-79.06093,44.26754],[-79.06156,44.26831],[-79.06157,44.26961],[-79.06077,44.27105],[-79.0641,44.2703],[-79.06428,44.27069],[-79.06548,44.27041],[-79.06572,44.27098],[-79.06695,44.27068],[-79.06652,44.2697],[-79.07602,44.26767],[-79.07327,44.2613],[-79.07226,44.26152],[-79.07193,44.26074],[-79.07075,44.26016],[-79.06996,44.25831],[-79.06852,44.25866],[-79.06616,44.25337],[-79.06481,44.25308]]]}},{"type":"Feature","properties":{"OGF_ID":3,"SETTLEMENT_NAME":"BEAVERTON","EFFECTIVE_DATETIME":"2017-05-18","SYSTEM_DATETIME":"2023-12-14"},"geometry":{"type":"Polygon","coordinates":[[[-79.14558,44.43952],[-79.14605,44.4407],[-79.14711,44.44096],[-79.14756,44.44152],[-79.14876,44.44157],[-79.14929,44.44233],[-79.15099,44.44183],[-79.15334,44.44301],[-79.15441,44.44317],[-79.15574,44.44264],[-79.15904,44.444],[-79.16122,44.44104],[-79.16231,44.43803],[-79.16468,44.43376],[-79.16636,44.43271],[-79.16944,44.43296],[-79.16634,44.43259],[-79.16457,44.4328],[-79.16432,44.43252],[-79.16409,44.43291],[-79.16358,44.43264],[-79.16328,44.43321],[-79.16226,44.43253],[-79.16252,44.43211],[-79.16367,44.43216],[-79.16355,44.4325],[-79.16401,44.43243],[-79.16397,44.43191],[-79.16996,44.43254],[-79.16997,44.43244],[-79.16724,44.43216],[-79.16661,44.43145],[-79.17063,44.42518],[-79.17311,44.41688],[-79.17338,44.41314],[-79.17173,44.41051],[-79.16953,44.41082],[-79.17153,44.41464],[-79.15653,44.41782],[-79.15834,44.41089],[-79.15002,44.41272],[-79.15269,44.41867],[-79.14164,44.42111],[-79.14381,44.42639],[-79.14267,44.42606],[-79.14241,44.4267],[-79.13533,44.42524],[-79.12724,44.42407],[-79.12514,44.42427],[-79.12258,44.42526],[-79.12571,44.43172],[-79.12652,44.43159],[-79.12846,44.43022],[-79.13271,44.43025],[-79.13441,44.43118],[-79.13431,44.43411],[-79.13147,44.4348],[-79.13152,44.43615],[-79.14063,44.43417],[-79.14127,44.43563],[-79.14367,44.43511],[-79.14558,44.43952]]]}},{"type":"Feature","properties":{"OGF_ID":4,"SETTLEMENT_NAME":"CANNINGTON","EFFECTIVE_DATETIME":"2017-05-18","SYSTEM_DATETIME":"2023-12-14"},"geometry":{"type":"Polygon","coordinates":[[[-79.03659,44.34268],[-79.0363,44.34203],[-79.03514,44.34229],[-79.034,44.33973],[-79.02699,44.34126],[-79.02851,44.34478],[-79.02793,44.34491],[-79.02784,44.34612],[-79.03033,44.35202],[-79.02447,44.35332],[-79.02717,44.35936],[-79.03499,44.3576],[-79.03554,44.35796],[-79.03609,44.3576],[-79.03864,44.35774],[-79.03977,44.3557],[-79.04101,44.35534],[-79.04137,44.35612],[-79.04483,44.35541],[-79.04403,44.35364],[-79.04634,44.35312],[-79.04786,44.35328],[-79.04873,44.35214],[-79.04981,44.3534],[-79.05061,44.35346],[-79.05071,44.35209],[-79.04879,44.34795],[-79.05457,44.34663],[-79.05172,44.34058],[-79.04304,44.34254],[-79.04364,44.34406],[-79.04197,44.34446],[-79.04222,44.34502],[-79.03872,44.34585],[-79.0381,44.34564],[-79.0379,44.34446],[-79.03659,44.34268]]]}},{"type":"Feature","properties":{"OGF_ID":5,"SETTLEMENT_NAME":"PORT PERRY","EFFECTIVE_DATETIME":"2017-05-18","SYSTEM_DATETIME":"2023-12-14"},"geometry":{"type":"Polygon","coordinates":[[[-78.93957,44.08697],[-78.93729,44.08747],[-78.93772,44.08788],[-78.93733,44.08859],[-78.93758,44.08975],[-78.93903,44.09232],[-78.93867,44.09441],[-78.93785,44.09518],[-78.9367,44.099],[-78.9353,44.09954],[-78.93501,44.10055],[-78.93554,44.1014],[-78.93406,44.1021],[-78.93457,44.10263],[-78.93557,44.10269],[-78.93706,44.10357],[-78.93902,44.10288],[-78.94144,44.10581],[-78.94085,44.10605],[-78.94143,44.10593],[-78.94192,44.10845],[-78.94319,44.10842],[-78.94466,44.10743],[-78.94439,44.10784],[-78.94655,44.10891],[-78.94702,44.10953],[-78.94827,44.10969],[-78.94814,44.1102],[-78.94687,44.11023],[-78.94493,44.11362],[-78.94471,44.1146],[-78.94523,44.11603],[-78.94679,44.11646],[-78.94713,44.11712],[-78.94494,44.12175],[-78.94724,44.1223],[-78.94932,44.12202],[-78.95165,44.1222],[-78.95197,44.12135],[-78.95237,44.12195],[-78.95354,44.12097],[-78.95376,44.12108],[-78.95286,44.12208],[-78.95312,44.1224],[-78.95425,44.12245],[-78.95313,44.12298],[-78.95271,44.12263],[-78.95335,44.12353],[-78.95284,44.12333],[-78.95262,44.12379],[-78.95194,44.12347],[-78.95189,44.12422],[-78.95139,44.12361],[-78.95063,44.12412],[-78.95099,44.12323],[-78.94945,44.12282],[-78.9481,44.12321],[-78.94572,44.12263],[-78.94486,44.12296],[-78.9445,44.12447],[-78.94571,44.12515],[-78.94456,44.12537],[-78.94457,44.12566],[-78.94598,44.12611],[-78.94405,44.12646],[-78.94341,44.12772],[-78.93732,44.13459],[-78.9356,44.13714],[-78.93357,44.14179],[-78.93363,44.14294],[-78.93684,44.14224],[-78.93652,44.14039],[-78.93793,44.14039],[-78.93748,44.13988],[-78.94647,44.13781],[-78.94477,44.13381],[-78.94856,44.1328],[-78.95617,44.13148],[-78.95763,44.1255],[-78.96019,44.125],[-78.95944,44.12409],[-78.97753,44.12011],[-78.97484,44.11405],[-78.96758,44.11566],[-78.96503,44.10949],[-78.99341,44.10313],[-78.9881,44.09084],[-78.96649,44.09545],[-78.96515,44.09223],[-78.96442,44.09284],[-78.96317,44.09207],[-78.96183,44.09319],[-78.95797,44.08412],[-78.95996,44.08369],[-78.95958,44.08274],[-78.96131,44.08238],[-78.95984,44.07889],[-78.95481,44.08],[-78.95441,44.07909],[-78.95261,44.07945],[-78.95153,44.07704],[-78.94967,44.07728],[-78.95191,44.08174],[-78.951,44.08193],[-78.95207,44.08434],[-78.93957,44.08697]]]}},{"type":"Feature","properties":{"OGF_ID":6,"SETTLEMENT_NAME":"ORONO","EFFECTIVE_DATETIME":"2017-05-18","SYSTEM_DATETIME":"2023-12-14"},"geometry":{"type":"Polygon","coordinates":[[[-78.61085,43.99292],[-78.61366,43.99263],[-78.62604,43.98985],[-78.62019,43.97695],[-78.62241,43.97641],[-78.62188,43.97529],[-78.6196,43.97521],[-78.62011,43.9741],[-78.61914,43.97124],[-78.61938,43.96875],[-78.61774,43.96673],[-78.61502,43.96506],[-78.61346,43.96227],[-78.61083,43.96287],[-78.61096,43.96508],[-78.60997,43.97108],[-78.6111,43.97622],[-78.61476,43.98439],[-78.61494,43.98664],[-78.61403,43.98925],[-78.61085,43.99292]]]}},{"type":"Feature","properties":{"OGF_ID":7,"SETTLEMENT_NAME":"BEAMSVILLE","EFFECTIVE_DATETIME":"2017-05-18","SYSTEM_DATETIME":"2023-12-14"},"geometry":{"type":"Polygon","coordinates":[[[-79.4658,43.17515],[-79.46642,43.1806],[-79.46123,43.1808],[-79.46151,43.18509],[-79.46016,43.18514],[-79.46036,43.1881],[-79.47157,43.18859],[-79.47157,43.18947],[-79.47496,43.19161],[-79.47825,43.19148],[-79.48018,43.18978],[-79.48199,43.18968],[-79.48265,43.18864],[-79.48275,43.18612],[-79.48333,43.18502],[-79.48294,43.18236],[-79.48186,43.18223],[-79.48175,43.17321],[-79.48704,43.17351],[-79.48704,43.1726],[-79.48786,43.17258],[-79.48786,43.17094],[-79.48918,43.17089],[-79.48927,43.1701],[-79.48781,43.16953],[-79.48755,43.16149],[-79.48654,43.1615],[-79.48591,43.15199],[-79.47061,43.15286],[-79.4711,43.15883],[-79.46431,43.15912],[-79.46481,43.16081],[-79.4658,43.17515]]]}},{"type":"Feature","properties":{"OGF_ID":8,"SETTLEMENT_NAME":"CAMPDEN","EFFECTIVE_DATETIME":"2017-05-18","SYSTEM_DATETIME":"2023-12-14"},"geometry":{"type":"Polygon","coordinates":[[[-79.42395,43.13545],[-79.43065,43.13523],[-79.43074,43.13632],[-79.43192,43.1363],[-79.43198,43.13734],[-79.43618,43.13729],[-79.43613,43.1361],[-79.43813,43.13608],[-79.43811,43.1351],[-79.43899,43.135],[-79.43895,43.13443],[-79.43379,43.13405],[-79.43382,43.13178],[-79.43056,43.13225],[-79.431,43.13344],[-79.42943,43.1335],[-79.42886,43.13479],[-79.42548,43.13492],[-79.4249,43.13351],[-79.42292,43.13357],[-79.423,43.13548],[-79.42395,43.13545]]]}},{"type":"Feature","properties":{"OGF_ID":9,"SETTLEMENT_NAME":"FENWICK","EFFECTIVE_DATETIME":"2017-05-18","SYSTEM_DATETIME":"2023-12-14"},"geometry":{"type":"Polygon","coordinates":[[[-79.35866,43.01523],[-79.36076,43.0176],[-79.36108,43.01877],[-79.3624,43.01876],[-79.36235,43.02003],[-79.3609,43.02005],[-79.36072,43.02304],[-79.34068,43.02337],[-79.34064,43.03362],[-79.36263,43.03357],[-79.36249,43.02542],[-79.36574,43.02541],[-79.36576,43.0242],[-79.36663,43.02418],[-79.36659,43.02319],[-79.36589,43.02319],[-79.3659,43.02203],[-79.36414,43.02207],[-79.36409,43.01645],[-79.36638,43.01643],[-79.36684,43.0162],[-79.36683,43.01511],[-79.35866,43.01523]]]}},{"type":"Feature","properties":{"OGF_ID":10,"SETTLEMENT_NAME":"GLENDALE","EFFECTIVE_DATETIME":"2017-05-18","SYSTEM_DATETIME":"2023-12-14"},"geometry":{"type":"Polygon","coordinates":[[[-79.14857,43.16361],[-79.1518,43.16408],[-79.15259,43.16484],[-79.16241,43.1638],[-79.17376,43.16412],[-79.17362,43.16052],[-79.17872,43.16245],[-79.17806,43.1472],[-79.15551,43.15389],[-79.15264,43.15295],[-79.14439,43.15315],[-79.14482,43.16071],[-79.14576,43.16082],[-79.14665,43.16272],[-79.14857,43.16361]]]}},{"type":"Feature","properties":{"OGF_ID":11,"SETTLEMENT_NAME":"GRIMSBY","EFFECTIVE_DATETIME":"2023-12-06","SYSTEM_DATETIME":"2023-12-14"},"geometry":{"type":"Polygon","coordinates":[[[-79.60208,43.21081],[-79.60279,43.20887],[-79.62213,43.21351],[-79.62385,43.2096],[-79.61433,43.20731],[-79.59506,43.20343],[-79.5951,43.20206],[-79.59822,43.19486],[-79.5775,43.1935],[-79.57583,43.19743],[-79.56427,43.19509],[-79.55736,43.19136],[-79.53385,43.18557],[-79.52753,43.185],[-79.51718,43.18505],[-79.51294,43.1831],[-79.51297,43.18699],[-79.52143,43.18862],[-79.52082,43.18897],[-79.51297,43.18894],[-79.51311,43.19521],[-79.5177,43.19497],[-79.52342,43.19543],[-79.52705,43.19508],[-79.53485,43.19631],[-79.54135,43.19878],[-79.5471,43.20209],[-79.55109,43.20388],[-79.55112,43.20318],[-79.55042,43.203],[-79.55071,43.20211],[-79.55112,43.20222],[-79.55104,43.20294],[-79.55153,43.2022],[-79.55066,43.20195],[-79.55061,43.20131],[-79.55186,43.20094],[-79.551,43.20134],[-79.55102,43.20182],[-79.55158,43.20198],[-79.55235,43.20103],[-79.5515,43.20365],[-79.55261,43.20283],[-79.55265,43.20391],[-79.55331,43.20482],[-79.55753,43.20623],[-79.56124,43.20682],[-79.56591,43.20686],[-79.5735,43.20552],[-79.58082,43.2048],[-79.58751,43.207],[-79.59501,43.21066],[-79.5974,43.21112],[-79.60108,43.21324],[-79.60208,43.21081]]]}},{"type":"Feature","properties":{"OGF_ID":12,"SETTLEMENT_NAME":"JORDAN","EFFECTIVE_DATETIME":"2017-05-18","SYSTEM_DATETIME":"2023-12-14"},"geometry":{"type":"Polygon","coordinates":[[[-79.36402,43.1434],[-79.36649,43.1452],[-79.36791,43.14568],[-79.36822,43.15084],[-79.37021,43.15082],[-79.37051,43.14844],[-79.37129,43.1475],[-79.36971,43.14592],[-79.36919,43.14434],[-79.36946,43.1426],[-79.3709,43.14222],[-79.37304,43.13943],[-79.36834,43.13727],[-79.36859,43.14188],[-79.3652,43.14202],[-79.3639,43.14168],[-79.36402,43.1434]]]}},{"type":"Feature","properties":{"OGF_ID":13,"SETTLEMENT_NAME":"JORDAN STATION","EFFECTIVE_DATETIME":"2017-05-18","SYSTEM_DATETIME":"2023-12-14"},"geometry":{"type":"Polygon","coordinates":[[[-79.36607,43.16577],[-79.36639,43.16484],[-79.36852,43.16451],[-79.36936,43.16337],[-79.36894,43.16173],[-79.36942,43.16074],[-79.35924,43.16112],[-79.35948,43.16492],[-79.36607,43.16577]]]}},{"type":"Feature","properties":{"OGF_ID":14,"SETTLEMENT_NAME":"NIAGARA-ON-THE-LAKE","EFFECTIVE_DATETIME":"2017-05-18","SYSTEM_DATETIME":"2023-12-14"},"geometry":{"type":"Polygon","coordinates":[[[-79.08334,43.26106],[-79.08611,43.26237],[-79.08765,43.26236],[-79.09321,43.26137],[-79.09404,43.26078],[-79.09599,43.26033],[-79.09211,43.25444],[-79.1013,43.25261],[-79.10123,43.2517],[-79.10004,43.25128],[-79.09607,43.24263],[-79.0915,43.24612],[-79.0851,43.24612],[-79.08127,43.2371],[-79.08044,43.23711],[-79.0805,43.238],[-79.07648,43.238],[-79.07533,43.23924],[-79.07394,43.23953],[-79.06945,43.24435],[-79.07732,43.24803],[-79.07527,43.25017],[-79.06946,43.24966],[-79.0655,43.25373],[-79.06224,43.25208],[-79.05891,43.25261],[-79.06131,43.25511],[-79.06278,43.25419],[-79.06235,43.25512],[-79.06339,43.25595],[-79.06308,43.25619],[-79.06201,43.25546],[-79.06188,43.25568],[-79.063,43.25671],[-79.06899,43.25799],[-79.07419,43.26078],[-79.07696,43.25784],[-79.08334,43.26106]]]}},{"type":"Feature","properties":{"OGF_ID":15,"SETTLEMENT_NAME":"PRUDHOMES","EFFECTIVE_DATETIME":"2017-05-18","SYSTEM_DATETIME":"2023-12-14"},"geometry":{"type":"Polygon","coordinates":[[[-79.39506,43.19431],[-79.39496,43.18834],[-79.39367,43.18834],[-79.39071,43.18691],[-79.38364,43.18703],[-79.37886,43.18659],[-79.37883,43.18717],[-79.38363,43.1889],[-79.3872,43.19073],[-79.38976,43.19255],[-79.39506,43.19431]]]}},{"type":"Feature","properties":{"OGF_ID":16,"SETTLEMENT_NAME":"VINELAND","EFFECTIVE_DATETIME":"2017-05-18","SYSTEM_DATETIME":"2023-12-14"},"geometry":{"type":"Polygon","coordinates":[[[-79.39356,43.16273],[-79.39896,43.16243],[-79.39869,43.1552],[-79.40384,43.15495],[-79.40375,43.15379],[-79.39929,43.15176],[-79.39922,43.15003],[-79.39345,43.15007],[-79.39308,43.14433],[-79.39164,43.14437],[-79.39193,43.14915],[-79.38931,43.14921],[-79.38643,43.14824],[-79.38691,43.15578],[-79.38786,43.15576],[-79.38815,43.16119],[-79.39344,43.16067],[-79.39356,43.16273]]]}},{"type":"Feature","properties":{"OGF_ID":17,"SETTLEMENT_NAME":"VINELAND SOUTH","EFFECTIVE_DATETIME":"2017-05-18","SYSTEM_DATETIME":"2023-12-14"},"geometry":{"type":"Polygon","coordinates":[[[-79.37755,43.15417],[-79.37833,43.15435],[-79.37956,43.15312],[-79.38061,43.15272],[-79.3812,43.15134],[-79.38038,43.15022],[-79.38085,43.1474],[-79.37953,43.14686],[-79.37853,43.15038],[-79.37584,43.15222],[-79.37614,43.15313],[-79.37729,43.15432],[-79.37755,43.15417]]]}},{"type":"Feature","properties":{"OGF_ID":18,"SETTLEMENT_NAME":"VIRGIL","EFFECTIVE_DATETIME":"2017-05-18","SYSTEM_DATETIME":"2023-12-14"},"geometry":{"type":"Polygon","coordinates":[[[-79.12356,43.23354],[-79.1257,43.23348],[-79.12544,43.22548],[-79.13605,43.22527],[-79.13576,43.21421],[-79.13426,43.21347],[-79.1352,43.21272],[-79.1337,43.21168],[-79.13241,43.21168],[-79.13245,43.21286],[-79.13091,43.21408],[-79.12396,43.21418],[-79.12406,43.21642],[-79.12013,43.21646],[-79.12061,43.21723],[-79.11587,43.21738],[-79.1159,43.21805],[-79.11109,43.21821],[-79.11148,43.22578],[-79.11528,43.22568],[-79.11625,43.22739],[-79.11783,43.22736],[-79.11787,43.22836],[-79.12341,43.22819],[-79.12356,43.23354]]]}},{"type":"Feature","properties":{"OGF_ID":19,"SETTLEMENT_NAME":"ERIN","EFFECTIVE_DATETIME":"2017-05-18","SYSTEM_DATETIME":"2023-12-14"},"geometry":{"type":"Polygon","coordinates":[[[-80.05474,43.78744],[-80.05306,43.78876],[-80.05953,43.79345],[-80.0648,43.78865],[-80.07024,43.79262],[-80.08271,43.78125],[-80.08606,43.78348],[-80.08858,43.78146],[-80.08512,43.77912],[-80.09713,43.76821],[-80.0866,43.76045],[-80.07603,43.77013],[-80.07071,43.76617],[-80.06872,43.76761],[-80.06562,43.76501],[-80.06652,43.76417],[-80.06711,43.76458],[-80.06779,43.76418],[-80.07328,43.75924],[-80.06638,43.75413],[-80.06117,43.76117],[-80.05896,43.76487],[-80.05787,43.76451],[-80.05728,43.76513],[-80.05621,43.76434],[-80.05811,43.76286],[-80.05759,43.76257],[-80.05826,43.76198],[-80.05649,43.76099],[-80.05662,43.76058],[-80.05523,43.76024],[-80.05427,43.76081],[-80.05464,43.75956],[-80.05381,43.75858],[-80.05464,43.75796],[-80.05422,43.75755],[-80.05451,43.75716],[-80.05302,43.75536],[-80.05408,43.75397],[-80.05279,43.753],[-80.05173,43.7534],[-80.04718,43.75761],[-80.05409,43.7627],[-80.04872,43.76766],[-80.06485,43.77968],[-80.05474,43.78744]]]}},{"type":"Feature","properties":{"OGF_ID":20,"SETTLEMENT_NAME":"MORRISTON","EFFECTIVE_DATETIME":"2017-05-18","SYSTEM_DATETIME":"2023-12-14"},"geometry":{"type":"Polygon","coordinates":[[[-80.11237,43.45712],[-80.12655,43.44666],[-80.12289,43.44407],[-80.12114,43.44545],[-80.12074,43.44691],[-80.11846,43.44751],[-80.11467,43.44476],[-80.11409,43.44518],[-80.11304,43.44487],[-80.11237,43.44538],[-80.10951,43.44344],[-80.10603,43.44607],[-80.10883,43.44898],[-80.10508,43.45181],[-80.11237,43.45712]]]}},{"type":"Feature","properties":{"OGF_ID":21,"SETTLEMENT_NAME":"HILLSBURGH","EFFECTIVE_DATETIME":"2017-05-18","SYSTEM_DATETIME":"2023-12-14"},"geometry":{"type":"Polygon","coordinates":[[[-80.14239,43.79798],[-80.14326,43.79856],[-80.14355,43.79838],[-80.14805,43.80152],[-80.15869,43.79182],[-80.1368,43.7766],[-80.12119,43.79093],[-80.12647,43.79463],[-80.13156,43.78994],[-80.14253,43.79758],[-80.14239,43.79798]]]}},{"type":"Feature","properties":{"OGF_ID":22,"SETTLEMENT_NAME":"PEFFERLAW","EFFECTIVE_DATETIME":"2017-05-18","SYSTEM_DATETIME":"2023-12-14"},"geometry":{"type":"Polygon","coordinates":[[[-79.17265,44.30025],[-79.19624,44.35363],[-79.19862,44.35074],[-79.20085,44.34884],[-79.20714,44.34511],[-79.21838,44.33946],[-79.21893,44.33945],[-79.2186,44.34081],[-79.22042,44.33971],[-79.22681,44.33787],[-79.23729,44.33662],[-79.24095,44.3369],[-79.24856,44.33537],[-79.24339,44.32456],[-79.24221,44.32484],[-79.22737,44.28763],[-79.17265,44.30025]]]}},{"type":"Feature","properties":{"OGF_ID":23,"SETTLEMENT_NAME":"SUTTON","EFFECTIVE_DATETIME":"2017-05-18","SYSTEM_DATETIME":"2023-12-14"},"geometry":{"type":"Polygon","coordinates":[[[-79.33016,44.32582],[-79.33277,44.33199],[-79.33876,44.32871],[-79.33964,44.32781],[-79.34123,44.3271],[-79.34222,44.32715],[-79.34205,44.32671],[-79.34507,44.32333],[-79.34666,44.32292],[-79.34692,44.32236],[-79.35997,44.32181],[-79.3608,44.32266],[-79.36383,44.3239],[-79.36454,44.32498],[-79.36752,44.32608],[-79.36838,44.3272],[-79.36814,44.32761],[-79.36849,44.32769],[-79.36967,44.32668],[-79.36765,44.32869],[-79.36701,44.32859],[-79.36742,44.3291],[-79.36872,44.32883],[-79.37108,44.32748],[-79.37301,44.32565],[-79.37398,44.32374],[-79.37822,44.32167],[-79.38314,44.32044],[-79.38584,44.32031],[-79.38682,44.32073],[-79.39178,44.3209],[-79.39385,44.32218],[-79.39704,44.31978],[-79.39604,44.31621],[-79.3923,44.31689],[-79.3872,44.2978],[-79.38633,44.29796],[-79.38159,44.27989],[-79.35471,44.28605],[-79.35421,44.28513],[-79.31482,44.29407],[-79.3204,44.30681],[-79.32121,44.30828],[-79.3235,44.31001],[-79.32454,44.31216],[-79.33016,44.32582]]]}},{"type":"Feature","properties":{"OGF_ID":24,"SETTLEMENT_NAME":"MAPLE LAKE ESTATES","EFFECTIVE_DATETIME":"2017-05-18","SYSTEM_DATETIME":"2023-12-14"},"geometry":{"type":"Polygon","coordinates":[[[-79.46122,44.2829],[-79.46393,44.29334],[-79.47036,44.29184],[-79.47051,44.29218],[-79.47055,44.2925],[-79.46412,44.29403],[-79.46434,44.29487],[-79.47096,44.29332],[-79.47166,44.2948],[-79.48437,44.29183],[-79.48426,44.29072],[-79.48561,44.28836],[-79.47909,44.27878],[-79.46122,44.2829]]]}},{"type":"Feature","properties":{"OGF_ID":25,"SETTLEMENT_NAME":"MOUNT ALBERT","EFFECTIVE_DATETIME":"2017-05-18","SYSTEM_DATETIME":"2023-12-14"},"geometry":{"type":"Polygon","coordinates":[[[-79.29602,44.14048],[-79.29773,44.14676],[-79.30739,44.14446],[-79.31051,44.1447],[-79.31073,44.14555],[-79.31278,44.14511],[-79.31382,44.14551],[-79.32126,44.14387],[-79.32047,44.13838],[-79.31339,44.13649],[-79.31247,44.13359],[-79.31497,44.12706],[-79.29379,44.13206],[-79.29602,44.14048]]]}},{"type":"Feature","properties":{"OGF_ID":26,"SETTLEMENT_NAME":"SCHOMBERG","EFFECTIVE_DATETIME":"2017-05-18","SYSTEM_DATETIME":"2023-12-14"},"geometry":{"type":"Polygon","coordinates":[[[-79.67158,44.00121],[-79.67257,44.00476],[-79.66485,44.00647],[-79.66664,44.01373],[-79.69097,44.00826],[-79.68855,43.99804],[-79.68973,43.99723],[-79.68917,43.99583],[-79.68804,43.99609],[-79.68745,43.99371],[-79.67511,43.99639],[-79.67594,43.99983],[-79.67423,44.0002],[-79.67434,44.00064],[-79.67158,44.00121]]]}},{"type":"Feature","properties":{"OGF_ID":27,"SETTLEMENT_NAME":"NOBLETON","EFFECTIVE_DATETIME":"2017-05-18","SYSTEM_DATETIME":"2023-12-14"},"geometry":{"type":"Polygon","coordinates":[[[-79.63047,43.91602],[-79.63075,43.91729],[-79.63705,43.91613],[-79.65829,43.91538],[-79.67589,43.91663],[-79.68109,43.91551],[-79.67299,43.88244],[-79.62493,43.89262],[-79.63047,43.91602]]]}},{"type":"Feature","properties":{"OGF_ID":28,"SETTLEMENT_NAME":"KESWICK","EFFECTIVE_DATETIME":"2017-05-18","SYSTEM_DATETIME":"2023-12-14"},"geometry":{"type":"Polygon","coordinates":[[[-79.44055,44.23074],[-79.44389,44.23068],[-79.44775,44.2299],[-79.44096,44.20366],[-79.43646,44.20964],[-79.43449,44.21154],[-79.43207,44.22141],[-79.43263,44.22154],[-79.43372,44.22512],[-79.43562,44.22509],[-79.43709,44.22579],[-79.43744,44.2278],[-79.43687,44.22949],[-79.43887,44.23059],[-79.44055,44.23074]]]}},{"type":"Feature","properties":{"OGF_ID":29,"SETTLEMENT_NAME":"KESWICK","EFFECTIVE_DATETIME":"2017-05-18","SYSTEM_DATETIME":"2023-12-14"},"geometry":{"type":"MultiPolygon","coordinates":[[[[-79.48521,44.26398],[-79.48456,44.26414],[-79.48484,44.26485],[-79.48372,44.2651],[-79.48399,44.26586],[-79.48065,44.26658],[-79.48148,44.26843],[-79.49183,44.26599],[-79.48921,44.26466],[-79.48789,44.2634],[-79.48762,44.2625],[-79.48812,44.25999],[-79.4878,44.25746],[-79.48972,44.25398],[-79.48978,44.25315],[-79.48871,44.25176],[-79.49005,44.24842],[-79.4901,44.24549],[-79.48649,44.24525],[-79.48545,44.24462],[-79.48473,44.24398],[-79.48443,44.24284],[-79.48502,44.24137],[-79.48264,44.24222],[-79.47904,44.24141],[-79.47482,44.23917],[-79.4721,44.2367],[-79.47208,44.23609],[-79.47132,44.23545],[-79.47039,44.23306],[-79.47075,44.2323],[-79.47041,44.23155],[-79.46966,44.23138],[-79.46967,44.23067],[-79.46883,44.23012],[-79.46699,44.23042],[-79.46647,44.23091],[-79.46636,44.23022],[-79.46896,44.23004],[-79.46884,44.22702],[-79.46951,44.22655],[-79.46942,44.22537],[-79.46995,44.22554],[-79.47082,44.22372],[-79.47273,44.22352],[-79.47102,44.22355],[-79.471,44.22306],[-79.47026,44.22275],[-79.47037,44.22193],[-79.47117,44.22158],[-79.47051,44.2208],[-79.471,44.22037],[-79.4707,44.21935],[-79.47225,44.21778],[-79.47316,44.21601],[-79.47359,44.21299],[-79.47504,44.21114],[-79.4755,44.20927],[-79.47776,44.20686],[-79.47883,44.20703],[-79.47939,44.206],[-79.47784,44.20617],[-79.4787,44.20606],[-79.47866,44.20576],[-79.47762,44.20587],[-79.47868,44.20564],[-79.47858,44.2054],[-79.47749,44.20537],[-79.47886,44.20495],[-79.47925,44.2058],[-79.47904,44.20451],[-79.47969,44.2037],[-79.47938,44.20166],[-79.48039,44.20019],[-79.47879,44.19994],[-79.47959,44.19828],[-79.47993,44.19819],[-79.47943,44.19939],[-79.47963,44.19986],[-79.48021,44.19988],[-79.48249,44.19788],[-79.48427,44.19702],[-79.47961,44.19776],[-79.48015,44.19743],[-79.48005,44.19647],[-79.48059,44.19749],[-79.48188,44.19707],[-79.48151,44.19617],[-79.48086,44.1961],[-79.48069,44.1957],[-79.48113,44.19543],[-79.4796,44.19007],[-79.48209,44.19705],[-79.48329,44.19672],[-79.4826,44.19582],[-79.48102,44.18976],[-79.48135,44.18974],[-79.48368,44.19661],[-79.48489,44.19638],[-79.48591,44.19531],[-79.48406,44.18894],[-79.43968,44.1988],[-79.44096,44.20366],[-79.44775,44.2299],[-79.45407,44.25527],[-79.47129,44.2514],[-79.47259,44.25609],[-79.48193,44.25397],[-79.48267,44.25659],[-79.48211,44.25894],[-79.48358,44.25863],[-79.48521,44.26398]]],[[[-79.48439,44.24133],[-79.48442,44.24132],[-79.48443,44.24132],[-79.48437,44.24131],[-79.48439,44.24133]]]]}},{"type":"Feature","properties":{"OGF_ID":30,"SETTLEMENT_NAME":"ORANGEVILLE","EFFECTIVE_DATETIME":"2017-05-18","SYSTEM_DATETIME":"2023-12-14"},"geometry":{"type":"Polygon","coordinates":[[[-80.09924,43.93325],[-80.10167,43.93527],[-80.10271,43.93505],[-80.1022,43.93302],[-80.10511,43.93321],[-80.10758,43.93396],[-80.13455,43.92817],[-80.1306,43.91198],[-80.14594,43.90884],[-80.11744,43.88926],[-80.09722,43.90781],[-80.09353,43.90513],[-80.08816,43.91005],[-80.08287,43.91498],[-80.08658,43.91769],[-80.08237,43.92163],[-80.07912,43.9201],[-80.07703,43.91972],[-80.0713,43.91553],[-80.06581,43.92041],[-80.07129,43.92448],[-80.06984,43.9253],[-80.0748,43.92424],[-80.08119,43.92275],[-80.08385,43.9335],[-80.09466,43.93127],[-80.09924,43.93325]]]}},{"type":"Feature","properties":{"OGF_ID":31,"SETTLEMENT_NAME":"BINBROOK","EFFECTIVE_DATETIME":"2017-05-18","SYSTEM_DATETIME":"2023-12-14"},"geometry":{"type":"Polygon","coordinates":[[[-79.82658,43.1311],[-79.83192,43.119],[-79.80269,43.11249],[-79.79573,43.1286],[-79.80075,43.12974],[-79.80094,43.12932],[-79.80187,43.12953],[-79.80256,43.12788],[-79.80344,43.12808],[-79.80358,43.12776],[-79.81953,43.1295],[-79.82658,43.1311]]]}},{"type":"Feature","properties":{"OGF_ID":32,"SETTLEMENT_NAME":"ACTON","EFFECTIVE_DATETIME":"2017-05-18","SYSTEM_DATETIME":"2023-12-14"},"geometry":{"type":"Polygon","coordinates":[[[-80.01912,43.63696],[-80.02975,43.64487],[-80.03017,43.6445],[-80.03238,43.64615],[-80.03509,43.64374],[-80.03561,43.6441],[-80.03594,43.6438],[-80.03668,43.64434],[-80.03746,43.64392],[-80.04251,43.63913],[-80.04942,43.64436],[-80.06368,43.6314],[-80.05721,43.63224],[-80.05512,43.63048],[-80.05701,43.62876],[-80.05669,43.6281],[-80.05539,43.62728],[-80.05207,43.62703],[-80.05124,43.62648],[-80.05096,43.62702],[-80.05022,43.62714],[-80.04763,43.62522],[-80.04849,43.62443],[-80.04877,43.62285],[-80.0463,43.62123],[-80.04406,43.62076],[-80.04373,43.62019],[-80.04244,43.61986],[-80.04123,43.62095],[-80.03861,43.61899],[-80.0351,43.62215],[-80.03346,43.62091],[-80.03313,43.6212],[-80.03226,43.62054],[-80.0319,43.62087],[-80.03045,43.61977],[-80.02948,43.62049],[-80.02829,43.61959],[-80.01786,43.62917],[-80.01869,43.63006],[-80.01565,43.63273],[-80.01998,43.63599],[-80.01912,43.63696]]]}},{"type":"Feature","properties":{"OGF_ID":33,"SETTLEMENT_NAME":"CALEDON VILLAGE","EFFECTIVE_DATETIME":"2017-05-18","SYSTEM_DATETIME":"2023-12-14"},"geometry":{"type":"Polygon","coordinates":[[[-79.98501,43.87001],[-79.99045,43.87399],[-80.0005,43.86501],[-80.00156,43.86586],[-80.00246,43.86506],[-80.00137,43.86424],[-80.00666,43.8594],[-79.99583,43.85142],[-79.99028,43.85609],[-79.99052,43.85627],[-79.98269,43.86371],[-79.97961,43.866],[-79.98501,43.87001]]]}},{"type":"Feature","properties":{"OGF_ID":34,"SETTLEMENT_NAME":"ALTON","EFFECTIVE_DATETIME":"2017-05-18","SYSTEM_DATETIME":"2023-12-14"},"geometry":{"type":"Polygon","coordinates":[[[-80.07601,43.86571],[-80.07662,43.86515],[-80.07379,43.86315],[-80.07482,43.86219],[-80.07461,43.86131],[-80.07349,43.86047],[-80.07332,43.85975],[-80.07213,43.85987],[-80.07172,43.85957],[-80.07342,43.85872],[-80.07251,43.85804],[-80.0732,43.85804],[-80.07436,43.85698],[-80.07548,43.85831],[-80.07783,43.8568],[-80.07685,43.85665],[-80.07681,43.85636],[-80.07746,43.85627],[-80.0784,43.85513],[-80.07929,43.85577],[-80.08079,43.85546],[-80.08314,43.85336],[-80.07485,43.84728],[-80.0695,43.85213],[-80.0681,43.85111],[-80.06339,43.8554],[-80.06224,43.85467],[-80.06109,43.85567],[-80.06219,43.8565],[-80.06057,43.85795],[-80.06383,43.86031],[-80.06305,43.86085],[-80.06437,43.86182],[-80.06361,43.86251],[-80.06466,43.86414],[-80.06597,43.86296],[-80.06661,43.86397],[-80.06899,43.86227],[-80.0704,43.86331],[-80.07159,43.86244],[-80.0728,43.86334],[-80.07159,43.86419],[-80.07322,43.86539],[-80.07427,43.86442],[-80.07601,43.86571]]]}},{"type":"Feature","properties":{"OGF_ID":35,"SETTLEMENT_NAME":"CALEDON EAST","EFFECTIVE_DATETIME":"2017-05-18","SYSTEM_DATETIME":"2023-12-14"},"geometry":{"type":"Polygon","coordinates":[[[-79.85124,43.86603],[-79.85248,43.86739],[-79.85707,43.86835],[-79.86145,43.86778],[-79.86801,43.86508],[-79.87131,43.8626],[-79.87263,43.85982],[-79.87276,43.85734],[-79.86752,43.85344],[-79.86224,43.85816],[-79.86145,43.85745],[-79.85523,43.86312],[-79.85238,43.86397],[-79.85211,43.86446],[-79.85311,43.86469],[-79.85305,43.86507],[-79.85151,43.86532],[-79.85124,43.86603]]]}},{"type":"Feature","properties":{"OGF_ID":36,"SETTLEMENT_NAME":"WATERDOWN","EFFECTIVE_DATETIME":"2017-05-18","SYSTEM_DATETIME":"2023-12-14"},"geometry":{"type":"Polygon","coordinates":[[[-79.89608,43.34331],[-79.89654,43.34364],[-79.90176,43.33972],[-79.90283,43.34047],[-79.90327,43.34015],[-79.90581,43.34196],[-79.90771,43.34049],[-79.90922,43.34125],[-79.91198,43.33911],[-79.91323,43.33877],[-79.91488,43.33768],[-79.91656,43.33574],[-79.91927,43.33368],[-79.92037,43.33332],[-79.92256,43.3337],[-79.92432,43.33137],[-79.92713,43.33086],[-79.91987,43.3256],[-79.92762,43.32004],[-79.92312,43.31641],[-79.92592,43.31433],[-79.92706,43.31793],[-79.93187,43.3171],[-79.92804,43.30489],[-79.92481,43.30635],[-79.89563,43.33104],[-79.90431,43.33727],[-79.89608,43.34331]]]}},{"type":"Feature","properties":{"OGF_ID":37,"SETTLEMENT_NAME":"ST DAVID'S","EFFECTIVE_DATETIME":"2017-05-18","SYSTEM_DATETIME":"2023-12-14"},"geometry":{"type":"Polygon","coordinates":[[[-79.11252,43.15823],[-79.10864,43.15834],[-79.10876,43.16211],[-79.11257,43.16202],[-79.11252,43.15823]]]}},{"type":"Feature","properties":{"OGF_ID":38,"SETTLEMENT_NAME":"INGLEWOOD","EFFECTIVE_DATETIME":"2017-05-18","SYSTEM_DATETIME":"2023-12-14"},"geometry":{"type":"Polygon","coordinates":[[[-79.92074,43.80467],[-79.92467,43.80156],[-79.9254,43.80207],[-79.9254,43.79976],[-79.92291,43.7974],[-79.9235,43.79695],[-79.92454,43.79718],[-79.92315,43.79602],[-79.92342,43.79557],[-79.92385,43.7953],[-79.92462,43.79546],[-79.9244,43.79582],[-79.92513,43.79583],[-79.92523,43.79516],[-79.92572,43.79537],[-79.92747,43.79425],[-79.92795,43.7946],[-79.92761,43.79379],[-79.92887,43.79343],[-79.92893,43.79312],[-79.92617,43.79113],[-79.92721,43.79013],[-79.91559,43.80089],[-79.92074,43.80467]]]}},{"type":"Feature","properties":{"OGF_ID":1,"SETTLEMENT_NAME":"UXBRIDGE","EFFECTIVE_DATETIME":"2017-05-18","SYSTEM_DATETIME":"2023-12-14"},"geometry":{"type":"Polygon","coordinates":[[[-79.11041,44.11668],[-79.11154,44.1192],[-79.12205,44.11675],[-79.12271,44.11772],[-79.12227,44.11839],[-79.1226,44.119],[-79.12342,44.1189],[-79.12443,44.11936],[-79.12795,44.11851],[-79.12825,44.11916],[-79.14932,44.1143],[-79.1447,44.10349],[-79.14128,44.1042],[-79.14024,44.10272],[-79.13825,44.10195],[-79.13723,44.10215],[-79.12742,44.101],[-79.12122,44.10307],[-79.11816,44.10124],[-79.11702,44.09925],[-79.11232,44.09836],[-79.10707,44.09798],[-79.09943,44.0997],[-79.1036,44.10879],[-79.10653,44.10815],[-79.11041,44.11668]]]}}]}